{"type":"FeatureCollection","features":[
{"type":"Feature","properties":{"osmId":"way/1106451990","buildingId":null,"name":"St. Leo Parish Office","height":7,"levels":2,"source":"default"},"geometry":{"type":"Polygon","coordinates":[[[-88.315305,36.615346],[-88.315303,36.615426],[-88.31545,36.615428],[-88.31545,36.615444],[-88.31552,36.615445],[-88.315522,36.61533],[-88.315448,36.615329],[-88.315447,36.615348],[-88.315305,36.615346]]]}},
{"type":"Feature","properties":{"osmId":"way/1106451999","buildingId":null,"name":"Saint Leo Catholic Church","height":7,"levels":2,"source":"default"},"geometry":{"type":"Polygon","coordinates":[[[-88.315852,36.615699],[-88.315872,36.615662],[-88.315844,36.615651],[-88.315864,36.615616],[-88.315882,36.615585],[-88.315973,36.615619],[-88.315956,36.615648],[-88.315935,36.615685],[-88.315908,36.615675],[-88.31589,36.615709],[-88.315888,36.615723],[-88.316041,36.615723],[-88.316041,36.615706],[-88.316093,36.615706],[-88.316093,36.615724],[-88.31623,36.615724],[-88.31623,36.615735],[-88.31631,36.615735],[-88.31631,36.615721],[-88.316359,36.615721],[-88.316359,36.61571],[-88.31641,36.61571],[-88.31641,36.615725],[-88.316466,36.615725],[-88.316467,36.616038],[-88.316306,36.616038],[-88.316306,36.615859],[-88.316277,36.615859],[-88.316277,36.615878],[-88.31622,36.615878],[-88.31622,36.615867],[-88.315894,36.615867],[-88.315894,36.615859],[-88.315848,36.61586],[-88.315848,36.615786],[-88.315829,36.615786],[-88.31583,36.615826],[-88.315691,36.615826],[-88.315691,36.615841],[-88.315604,36.615841],[-88.315604,36.615814],[-88.315465,36.615815],[-88.315465,36.615843],[-88.315405,36.615843],[-88.315405,36.615813],[-88.315308,36.615814],[-88.315288,36.615751],[-88.315287,36.615714],[-88.315315,36.615659],[-88.315347,36.615659],[-88.315346,36.615548],[-88.315532,36.615547],[-88.315533,36.615584],[-88.315577,36.615584],[-88.315577,36.615628],[-88.315527,36.615628],[-88.315527,36.615664],[-88.315614,36.615663],[-88.315614,36.615645],[-88.315694,36.615645],[-88.315694,36.615658],[-88.31583,36.615657],[-88.31583,36.615699],[-88.315852,36.615699]]]}},
{"type":"Feature","properties":{"osmId":"way/1138687374","buildingId":"bld-cc","name":"Curris Center","height":10.5,"levels":3,"source":"default"},"geometry":{"type":"Polygon","coordinates":[[[-88.320812,36.615916],[-88.320996,36.61591],[-88.321066,36.615841],[-88.321571,36.615855],[-88.321584,36.615559],[-88.321619,36.61556],[-88.321621,36.615527],[-88.321536,36.615525],[-88.321538,36.615464],[-88.321658,36.615356],[-88.321662,36.61519],[-88.321574,36.615189],[-88.321575,36.615149],[-88.321517,36.615148],[-88.321515,36.61522],[-88.321001,36.615212],[-88.321002,36.615168],[-88.320998,36.615168],[-88.320967,36.615162],[-88.320951,36.615215],[-88.320753,36.615217],[-88.320758,36.615376],[-88.320815,36.615381],[-88.320828,36.615623],[-88.320711,36.615627],[-88.320715,36.615706],[-88.320801,36.615703],[-88.320812,36.615916]]]}},
{"type":"Feature","properties":{"osmId":"way/1150302742","buildingId":null,"name":"","height":7,"levels":2,"source":"default"},"geometry":{"type":"Polygon","coordinates":[[[-88.333056,36.622984],[-88.332935,36.622841],[-88.333065,36.622771],[-88.3331,36.622812],[-88.333148,36.622786],[-88.33317,36.622811],[-88.333233,36.622777],[-88.333285,36.622838],[-88.333224,36.622872],[-88.333236,36.622886],[-88.333056,36.622984]]]}},
{"type":"Feature","properties":{"osmId":"way/1232965496","buildingId":"bld-ep","name":"Engineering and Physics Building","height":10.5,"levels":3,"source":"override"},"geometry":{"type":"Polygon","coordinates":[[[-88.325299,36.612408],[-88.325249,36.612372],[-88.325246,36.612316],[-88.325305,36.612314],[-88.325302,36.612248],[-88.325333,36.612248],[-88.32533,36.612186],[-88.325303,36.612183],[-88.325305,36.611978],[-88.325102,36.611975],[-88.325102,36.612001],[-88.324935,36.611998],[-88.324935,36.611793],[-88.324907,36.611794],[-88.324902,36.611712],[-88.324667,36.611707],[-88.32467,36.611742],[-88.324623,36.611743],[-88.324623,36.611787],[-88.324534,36.611788],[-88.324534,36.612187],[-88.324487,36.612187],[-88.324486,36.612245],[-88.324501,36.612245],[-88.324509,36.612268],[-88.324521,36.612288],[-88.324544,36.612311],[-88.324574,36.612328],[-88.324597,36.612337],[-88.324618,36.612338],[-88.324618,36.612349],[-88.32469,36.612351],[-88.324689,36.612328],[-88.324811,36.612329],[-88.32481,36.612352],[-88.324844,36.612353],[-88.324842,36.612374],[-88.324874,36.612382],[-88.324927,36.612387],[-88.324973,36.612385],[-88.325009,36.612374],[-88.325009,36.612351],[-88.325044,36.612353],[-88.325045,36.612314],[-88.32519,36.612318],[-88.325186,36.612368],[-88.325171,36.612369],[-88.325125,36.612405],[-88.325125,36.612463],[-88.325171,36.612495],[-88.325236,36.612499],[-88.325259,36.612489],[-88.325331,36.612493],[-88.325299,36.612408]]]}},
{"type":"Feature","properties":{"osmId":"way/1232965496","buildingId":"bld-bg","name":"Gene Wells Ray Science Campus","height":10.5,"levels":3,"source":"override"},"geometry":{"type":"Polygon","coordinates":[[[-88.326004,36.613637],[-88.326013,36.613125],[-88.326028,36.613129],[-88.32603,36.613097],[-88.326065,36.613097],[-88.326065,36.613054],[-88.326094,36.613052],[-88.326095,36.612979],[-88.326069,36.612979],[-88.326067,36.612935],[-88.326032,36.612933],[-88.326032,36.612901],[-88.326013,36.612901],[-88.326014,36.612871],[-88.326038,36.612869],[-88.326035,36.61283],[-88.326061,36.61283],[-88.326062,36.612805],[-88.32609,36.612806],[-88.326093,36.612674],[-88.326064,36.612675],[-88.326067,36.61264],[-88.326039,36.612641],[-88.326041,36.61248],[-88.325914,36.612477],[-88.325923,36.612371],[-88.325374,36.612366],[-88.325331,36.612493],[-88.325327,36.61263],[-88.325374,36.612633],[-88.325375,36.612687],[-88.325601,36.612685],[-88.325603,36.61272],[-88.325716,36.612721],[-88.325717,36.612685],[-88.325763,36.612686],[-88.325766,36.612868],[-88.325832,36.612869],[-88.325832,36.612893],[-88.32582,36.612893],[-88.325819,36.612951],[-88.325834,36.612951],[-88.325834,36.612972],[-88.325777,36.612973],[-88.32578,36.613042],[-88.325835,36.613043],[-88.325833,36.613074],[-88.325821,36.613074],[-88.325822,36.613124],[-88.325822,36.613136],[-88.32583,36.613156],[-88.325757,36.613154],[-88.32576,36.613338],[-88.325348,36.613338],[-88.325354,36.613543],[-88.325426,36.613546],[-88.325434,36.613653],[-88.325906,36.613655],[-88.325907,36.613635],[-88.326004,36.613637]]]}},
{"type":"Feature","properties":{"osmId":"way/1232973725","buildingId":"bld-wr","name":"Wrather West Kentucky Museum","height":10.5,"levels":3,"source":"default"},"geometry":{"type":"Polygon","coordinates":[[[-88.323831,36.61112],[-88.323833,36.610945],[-88.323429,36.610946],[-88.323431,36.611118],[-88.323546,36.61112],[-88.323546,36.611302],[-88.323731,36.611297],[-88.323734,36.61112],[-88.323831,36.61112]]]}},
{"type":"Feature","properties":{"osmId":"way/1232973726","buildingId":null,"name":"","height":7,"levels":2,"source":"default"},"geometry":{"type":"Polygon","coordinates":[[[-88.323289,36.611649],[-88.323292,36.61122],[-88.323323,36.611219],[-88.323323,36.611171],[-88.323291,36.61117],[-88.323292,36.611098],[-88.323134,36.611095],[-88.323132,36.611648],[-88.323289,36.611649]]]}},
{"type":"Feature","properties":{"osmId":"way/1232973727","buildingId":"bld-bauernfeind","name":"Business Building","height":10.5,"levels":3,"source":"default"},"geometry":{"type":"Polygon","coordinates":[[[-88.323687,36.612002],[-88.32369,36.611919],[-88.323751,36.611919],[-88.323768,36.611647],[-88.323713,36.611648],[-88.323713,36.611465],[-88.323301,36.611459],[-88.3233,36.611651],[-88.323446,36.611649],[-88.323442,36.612003],[-88.323687,36.612002]]]}},
{"type":"Feature","properties":{"osmId":"way/1232973728","buildingId":"bld-we","name":"Wells Hall","height":10.5,"levels":3,"source":"default"},"geometry":{"type":"Polygon","coordinates":[[[-88.323813,36.612717],[-88.323817,36.612593],[-88.323591,36.612591],[-88.323594,36.612473],[-88.32364,36.612473],[-88.323646,36.612318],[-88.323602,36.612318],[-88.323603,36.612196],[-88.323819,36.612199],[-88.323817,36.612069],[-88.323435,36.612069],[-88.323443,36.612342],[-88.323375,36.612346],[-88.323378,36.61245],[-88.323437,36.612448],[-88.323438,36.612719],[-88.323813,36.612717]]]}},
{"type":"Feature","properties":{"osmId":"way/1232973729","buildingId":"bld-fh","name":"Faculty Hall","height":10.5,"levels":3,"source":"default"},"geometry":{"type":"Polygon","coordinates":[[[-88.323625,36.613167],[-88.323632,36.613055],[-88.323699,36.613057],[-88.323702,36.612951],[-88.32363,36.612953],[-88.323635,36.612842],[-88.323165,36.612842],[-88.323166,36.612954],[-88.323092,36.612954],[-88.323089,36.613051],[-88.323165,36.61305],[-88.323168,36.613166],[-88.323625,36.613167]]]}},
{"type":"Feature","properties":{"osmId":"way/1232973730","buildingId":"bld-wi","name":"Wilson Hall","height":10.5,"levels":3,"source":"default"},"geometry":{"type":"Polygon","coordinates":[[[-88.32292,36.611207],[-88.322928,36.610947],[-88.322276,36.610946],[-88.322282,36.611208],[-88.322412,36.611204],[-88.322412,36.611186],[-88.322791,36.611185],[-88.322791,36.611204],[-88.32292,36.611207]]]}},
{"type":"Feature","properties":{"osmId":"way/1232973731","buildingId":"bld-lc","name":"Lowry Center","height":10.5,"levels":3,"source":"default"},"geometry":{"type":"Polygon","coordinates":[[[-88.322339,36.61171],[-88.322339,36.611424],[-88.32204,36.611419],[-88.322037,36.611709],[-88.322099,36.611709],[-88.322102,36.611731],[-88.322182,36.611731],[-88.322188,36.611709],[-88.322339,36.61171]]]}},
{"type":"Feature","properties":{"osmId":"way/1232973732","buildingId":"bld-pl","name":"Pogue Special Collections Library","height":10.5,"levels":3,"source":"default"},"geometry":{"type":"Polygon","coordinates":[[[-88.322319,36.612195],[-88.322321,36.612049],[-88.322349,36.612051],[-88.322361,36.611914],[-88.322325,36.611914],[-88.322332,36.611764],[-88.322028,36.611761],[-88.322036,36.611908],[-88.321991,36.61191],[-88.321994,36.612049],[-88.322025,36.612051],[-88.322027,36.612189],[-88.322319,36.612195]]]}},
{"type":"Feature","properties":{"osmId":"way/1232973733","buildingId":"bld-fa","name":"Price Doyle Fine Arts Center","height":31.5,"levels":9,"source":"osm"},"geometry":{"type":"Polygon","coordinates":[[[-88.322379,36.613153],[-88.322382,36.612988],[-88.322405,36.612988],[-88.322405,36.612934],[-88.322377,36.612934],[-88.322377,36.612771],[-88.32197,36.61277],[-88.321974,36.613146],[-88.322099,36.61315],[-88.322099,36.613171],[-88.322038,36.613173],[-88.322033,36.613254],[-88.322264,36.613254],[-88.322267,36.613173],[-88.322224,36.613171],[-88.322223,36.61315],[-88.322379,36.613153]]]}},
{"type":"Feature","properties":{"osmId":"way/1232973734","buildingId":"bld-wl","name":"Harry Lee Waterfield Library","height":10.5,"levels":3,"source":"default"},"geometry":{"type":"Polygon","coordinates":[[[-88.321761,36.613823],[-88.321767,36.613227],[-88.321667,36.613227],[-88.321667,36.613169],[-88.321463,36.613169],[-88.321462,36.61322],[-88.321093,36.613218],[-88.32109,36.613334],[-88.321089,36.613355],[-88.321061,36.613355],[-88.321061,36.613691],[-88.321087,36.613694],[-88.321083,36.613837],[-88.321463,36.613838],[-88.32146,36.613873],[-88.321656,36.613877],[-88.321656,36.61382],[-88.321761,36.613823]]]}},
{"type":"Feature","properties":{"osmId":"way/1232973735","buildingId":"bld-it","name":"Collins Industry and Technology Center","height":10.5,"levels":3,"source":"default"},"geometry":{"type":"Polygon","coordinates":[[[-88.323478,36.616099],[-88.322973,36.615433],[-88.321984,36.615443],[-88.32198,36.615406],[-88.321877,36.615408],[-88.321879,36.615564],[-88.321975,36.615567],[-88.321975,36.615525],[-88.322051,36.615527],[-88.322053,36.615805],[-88.322023,36.615805],[-88.322028,36.615944],[-88.32223,36.615942],[-88.322234,36.615971],[-88.322252,36.615998],[-88.322279,36.61602],[-88.322307,36.616033],[-88.322338,36.616039],[-88.322378,36.616038],[-88.322415,36.61603],[-88.322445,36.616016],[-88.322466,36.615996],[-88.322483,36.615971],[-88.322489,36.615952],[-88.322491,36.615935],[-88.323044,36.61593],[-88.323268,36.61621],[-88.323301,36.616233],[-88.323339,36.616247],[-88.323387,36.616251],[-88.32343,36.616243],[-88.323458,36.616228],[-88.323483,36.616208],[-88.323501,36.61618],[-88.323504,36.616154],[-88.3235,36.616127],[-88.323478,36.616099]]]}},
{"type":"Feature","properties":{"osmId":"way/1232973736","buildingId":"bld-bl","name":"Blackburn Science Building","height":10.5,"levels":3,"source":"default"},"geometry":{"type":"Polygon","coordinates":[[[-88.322785,36.615108],[-88.322791,36.614627],[-88.322042,36.614621],[-88.322041,36.615106],[-88.322785,36.615108]]]}},
{"type":"Feature","properties":{"osmId":"way/1232973737","buildingId":"bld-as","name":"Oakley Applied Science Building","height":10.5,"levels":3,"source":"default"},"geometry":{"type":"Polygon","coordinates":[[[-88.322416,36.614524],[-88.322416,36.614229],[-88.322619,36.614227],[-88.322621,36.613967],[-88.322421,36.613969],[-88.322423,36.613672],[-88.322055,36.613668],[-88.322055,36.613962],[-88.322226,36.613967],[-88.322225,36.614229],[-88.322053,36.614229],[-88.322046,36.614523],[-88.322416,36.614524]]]}},
{"type":"Feature","properties":{"osmId":"way/1232973738","buildingId":"bld-va","name":"Visual Arts Building","height":10.5,"levels":3,"source":"default"},"geometry":{"type":"Polygon","coordinates":[[[-88.322914,36.614388],[-88.322915,36.614244],[-88.322826,36.614242],[-88.322828,36.613954],[-88.322918,36.613954],[-88.322917,36.613807],[-88.322552,36.613805],[-88.322559,36.613952],[-88.322645,36.613955],[-88.322646,36.614048],[-88.322626,36.614048],[-88.322626,36.614149],[-88.322643,36.61415],[-88.322642,36.614242],[-88.322552,36.614242],[-88.322554,36.614389],[-88.322914,36.614388]]]}},
{"type":"Feature","properties":{"osmId":"way/1232973739","buildingId":"bld-central-plant","name":"Central Heating and Cooling Plant","height":10.5,"levels":3,"source":"default"},"geometry":{"type":"Polygon","coordinates":[[[-88.323547,36.615129],[-88.323552,36.614924],[-88.32317,36.614921],[-88.323171,36.615131],[-88.323547,36.615129]]]}},
{"type":"Feature","properties":{"osmId":"way/1232973740","buildingId":"bld-ha","name":"E. B. Howton Agricultural Engineering Building","height":10.5,"levels":3,"source":"default"},"geometry":{"type":"Polygon","coordinates":[[[-88.324165,36.615294],[-88.324169,36.615095],[-88.32379,36.615101],[-88.323785,36.615301],[-88.324165,36.615294]]]}},
{"type":"Feature","properties":{"osmId":"way/1232973741","buildingId":"bld-wellness","name":"Susan E. Bauernfeind Student Recreation and Wellness Center","height":10.5,"levels":3,"source":"default"},"geometry":{"type":"Polygon","coordinates":[[[-88.320916,36.621172],[-88.320941,36.620591],[-88.32045,36.620581],[-88.320451,36.620637],[-88.320356,36.620636],[-88.320356,36.62059],[-88.319769,36.620591],[-88.319773,36.620627],[-88.319861,36.620629],[-88.319863,36.620688],[-88.319753,36.620686],[-88.319761,36.620888],[-88.319777,36.620934],[-88.319798,36.620968],[-88.31983,36.621007],[-88.31987,36.621039],[-88.319913,36.621061],[-88.31996,36.621083],[-88.320018,36.6211],[-88.320069,36.621105],[-88.32009,36.621108],[-88.320088,36.621139],[-88.32015,36.62114],[-88.32015,36.621133],[-88.320354,36.621136],[-88.320355,36.621176],[-88.320457,36.621177],[-88.320457,36.621167],[-88.320476,36.621169],[-88.320476,36.621307],[-88.320804,36.621309],[-88.320807,36.621172],[-88.320916,36.621172]]]}},
{"type":"Feature","properties":{"osmId":"way/1232973742","buildingId":"bld-cc1200","name":"College Courts 1200","height":14,"levels":4,"source":"default"},"geometry":{"type":"Polygon","coordinates":[[[-88.32112,36.620702],[-88.321233,36.620704],[-88.321233,36.620667],[-88.321252,36.620667],[-88.321253,36.620616],[-88.321233,36.620616],[-88.321234,36.620552],[-88.321253,36.620552],[-88.321253,36.620502],[-88.321233,36.620502],[-88.321235,36.620437],[-88.321253,36.620437],[-88.321254,36.620387],[-88.321235,36.620386],[-88.321235,36.62035],[-88.32112,36.620351],[-88.32112,36.620702]]]}},
{"type":"Feature","properties":{"osmId":"way/1232973743","buildingId":"bld-heritage","name":"Heritage Hall","height":14,"levels":4,"source":"default"},"geometry":{"type":"Polygon","coordinates":[[[-88.324052,36.622357],[-88.324092,36.622356],[-88.324089,36.622205],[-88.324109,36.622204],[-88.324107,36.622158],[-88.323797,36.622164],[-88.323748,36.6222],[-88.323748,36.622226],[-88.323535,36.622229],[-88.323538,36.622477],[-88.323796,36.622471],[-88.323796,36.622454],[-88.323983,36.622446],[-88.323984,36.622416],[-88.324022,36.622415],[-88.324051,36.622388],[-88.324052,36.622357]]]}},
{"type":"Feature","properties":{"osmId":"way/1232973744","buildingId":"bld-facilities","name":"Facilities Management Complex","height":10.5,"levels":3,"source":"default"},"geometry":{"type":"Polygon","coordinates":[[[-88.318244,36.618708],[-88.318395,36.618174],[-88.318451,36.618185],[-88.318481,36.618094],[-88.318062,36.618013],[-88.318039,36.6181],[-88.318097,36.618113],[-88.317949,36.618652],[-88.318244,36.618708]]]}},
{"type":"Feature","properties":{"osmId":"way/1232973745","buildingId":null,"name":"","height":7,"levels":2,"source":"default"},"geometry":{"type":"Polygon","coordinates":[[[-88.318118,36.61907],[-88.318178,36.618875],[-88.318042,36.618844],[-88.317976,36.619043],[-88.318118,36.61907]]]}},
{"type":"Feature","properties":{"osmId":"way/1232973746","buildingId":null,"name":"","height":7,"levels":2,"source":"default"},"geometry":{"type":"Polygon","coordinates":[[[-88.31768,36.619249],[-88.317813,36.618837],[-88.317673,36.618811],[-88.31754,36.619222],[-88.31768,36.619249]]]}},
{"type":"Feature","properties":{"osmId":"way/1232973747","buildingId":null,"name":"","height":7,"levels":2,"source":"default"},"geometry":{"type":"Polygon","coordinates":[[[-88.317845,36.619759],[-88.318041,36.619149],[-88.317845,36.619106],[-88.317793,36.619278],[-88.317867,36.61929],[-88.31773,36.61974],[-88.317845,36.619759]]]}},
{"type":"Feature","properties":{"osmId":"way/1232973748","buildingId":null,"name":"","height":7,"levels":2,"source":"default"},"geometry":{"type":"Polygon","coordinates":[[[-88.317577,36.619647],[-88.317659,36.619377],[-88.317509,36.619351],[-88.317427,36.619623],[-88.317577,36.619647]]]}},
{"type":"Feature","properties":{"osmId":"way/1232973751","buildingId":"bld-hogancamp","name":"Hogancamp General Services Building","height":10.5,"levels":3,"source":"default"},"geometry":{"type":"Polygon","coordinates":[[[-88.318494,36.61733],[-88.31848,36.617027],[-88.31767,36.61705],[-88.317696,36.617495],[-88.318067,36.617487],[-88.318061,36.617344],[-88.318494,36.61733]]]}},
{"type":"Feature","properties":{"osmId":"way/1232973752","buildingId":null,"name":"","height":7,"levels":2,"source":"default"},"geometry":{"type":"Polygon","coordinates":[[[-88.317292,36.617486],[-88.317276,36.617234],[-88.316476,36.617258],[-88.316494,36.617513],[-88.317292,36.617486]]]}},
{"type":"Feature","properties":{"osmId":"way/1232973753","buildingId":"bld-ht","name":"Hart College","height":14,"levels":4,"source":"default"},"geometry":{"type":"Polygon","coordinates":[[[-88.320867,36.618558],[-88.320855,36.618344],[-88.321127,36.618334],[-88.321124,36.61827],[-88.321159,36.618269],[-88.32116,36.618238],[-88.321121,36.618237],[-88.321118,36.618175],[-88.320847,36.618177],[-88.320836,36.617969],[-88.320749,36.617969],[-88.320749,36.617936],[-88.320709,36.617935],[-88.320712,36.617971],[-88.320632,36.617972],[-88.320641,36.61819],[-88.320373,36.618197],[-88.320382,36.618359],[-88.320648,36.618354],[-88.32066,36.618564],[-88.320742,36.618563],[-88.320744,36.618598],[-88.320784,36.618597],[-88.320781,36.618561],[-88.320867,36.618558]]]}},
{"type":"Feature","properties":{"osmId":"way/1232973754","buildingId":"bld-ck","name":"Lee Clark College","height":14,"levels":4,"source":"default"},"geometry":{"type":"Polygon","coordinates":[[[-88.322697,36.618132],[-88.322699,36.617971],[-88.322229,36.617965],[-88.32223,36.618683],[-88.322682,36.618691],[-88.322687,36.618529],[-88.322423,36.61853],[-88.322424,36.618127],[-88.322697,36.618132]]]}},
{"type":"Feature","properties":{"osmId":"way/1232973755","buildingId":"bld-winslow","name":"Winslow Dining Hall","height":10.5,"levels":3,"source":"default"},"geometry":{"type":"Polygon","coordinates":[[[-88.32207,36.618564],[-88.322074,36.61845],[-88.322108,36.618449],[-88.322112,36.618389],[-88.322057,36.618388],[-88.322063,36.618177],[-88.322112,36.618176],[-88.322112,36.618115],[-88.322073,36.618113],[-88.322077,36.618009],[-88.32186,36.618006],[-88.321857,36.617963],[-88.32155,36.617956],[-88.321554,36.618216],[-88.321507,36.618215],[-88.321503,36.61834],[-88.321546,36.61834],[-88.321549,36.618596],[-88.32186,36.618604],[-88.321864,36.618562],[-88.32207,36.618564]]]}},
{"type":"Feature","properties":{"osmId":"way/1232973756","buildingId":"bld-he","name":"Hester College","height":14,"levels":4,"source":"default"},"geometry":{"type":"Polygon","coordinates":[[[-88.321839,36.61972],[-88.321824,36.619346],[-88.321752,36.619346],[-88.321753,36.619307],[-88.321642,36.619311],[-88.321643,36.619356],[-88.321576,36.619355],[-88.321587,36.619729],[-88.321664,36.619727],[-88.321665,36.619766],[-88.321771,36.619767],[-88.32177,36.619719],[-88.321839,36.61972]]]}},
{"type":"Feature","properties":{"osmId":"way/1232973757","buildingId":"bld-rx","name":"JH Richmond Hall","height":14,"levels":4,"source":"default"},"geometry":{"type":"Polygon","coordinates":[[[-88.322646,36.619294],[-88.322641,36.619457],[-88.322441,36.619449],[-88.322441,36.619857],[-88.322632,36.619851],[-88.32263,36.620013],[-88.322253,36.620013],[-88.322265,36.61929],[-88.322646,36.619294]]]}},
{"type":"Feature","properties":{"osmId":"way/1232973758","buildingId":"bld-el","name":"Elizabeth College","height":14,"levels":4,"source":"default"},"geometry":{"type":"Polygon","coordinates":[[[-88.321926,36.617307],[-88.32191,36.617013],[-88.321848,36.617013],[-88.321844,36.616974],[-88.321744,36.616977],[-88.321745,36.617017],[-88.321692,36.617017],[-88.321708,36.617311],[-88.321762,36.617311],[-88.321767,36.61735],[-88.32186,36.617348],[-88.321859,36.617308],[-88.321926,36.617307]]]}},
{"type":"Feature","properties":{"osmId":"way/1232973759","buildingId":null,"name":"","height":7,"levels":2,"source":"default"},"geometry":{"type":"Polygon","coordinates":[[[-88.322745,36.617422],[-88.322745,36.61701],[-88.322507,36.617011],[-88.322511,36.617421],[-88.322745,36.617422]]]}},
{"type":"Feature","properties":{"osmId":"way/1232973760","buildingId":"bld-police","name":"Murray State Police Department","height":10.5,"levels":3,"source":"default"},"geometry":{"type":"Polygon","coordinates":[[[-88.323866,36.616552],[-88.32396,36.61649],[-88.323981,36.6165],[-88.324003,36.616501],[-88.324052,36.616481],[-88.324066,36.616458],[-88.324064,36.616436],[-88.324047,36.616422],[-88.324116,36.616359],[-88.32388,36.616179],[-88.323774,36.616255],[-88.323757,36.616242],[-88.323712,36.616275],[-88.32373,36.616289],[-88.323635,36.616375],[-88.323866,36.616552]]]}},
{"type":"Feature","properties":{"osmId":"way/1232973761","buildingId":"bld-re","name":"Regents College","height":14,"levels":4,"source":"default"},"geometry":{"type":"Polygon","coordinates":[[[-88.318177,36.616132],[-88.31817,36.615563],[-88.318108,36.615565],[-88.318109,36.615541],[-88.318049,36.615543],[-88.318049,36.615567],[-88.318027,36.615565],[-88.318036,36.615818],[-88.318043,36.616164],[-88.318103,36.616161],[-88.318103,36.616132],[-88.318177,36.616132]]]}},
{"type":"Feature","properties":{"osmId":"way/1232973762","buildingId":"bld-white","name":"J. H. White College","height":14,"levels":4,"source":"default"},"geometry":{"type":"Polygon","coordinates":[[[-88.318091,36.615435],[-88.318091,36.615383],[-88.318061,36.615385],[-88.318059,36.615341],[-88.317353,36.615363],[-88.317356,36.615411],[-88.317325,36.615413],[-88.317327,36.61546],[-88.31736,36.615458],[-88.317359,36.615476],[-88.318064,36.615455],[-88.318063,36.615436],[-88.318091,36.615435]]]}},
{"type":"Feature","properties":{"osmId":"way/1232973763","buildingId":"bld-mh","name":"Mason Hall","height":10.5,"levels":3,"source":"default"},"geometry":{"type":"Polygon","coordinates":[[[-88.319786,36.614789],[-88.319787,36.614572],[-88.319289,36.614575],[-88.319302,36.61479],[-88.31939,36.61479],[-88.31939,36.614966],[-88.319631,36.61497],[-88.319637,36.614789],[-88.319786,36.614789]]]}},
{"type":"Feature","properties":{"osmId":"way/1232973764","buildingId":"bld-racer-arena","name":"Cutchin Fieldhouse","height":10.5,"levels":3,"source":"default"},"geometry":{"type":"Polygon","coordinates":[[[-88.320821,36.614863],[-88.32023,36.614859],[-88.320247,36.614197],[-88.320809,36.614214],[-88.32082,36.614495],[-88.320969,36.614495],[-88.320968,36.614786],[-88.320826,36.614788],[-88.320821,36.614863]]]}},
{"type":"Feature","properties":{"osmId":"way/1232973765","buildingId":"bld-sm","name":"Simpson Child Development Center","height":10.5,"levels":3,"source":"default"},"geometry":{"type":"Polygon","coordinates":[[[-88.320623,36.613952],[-88.320624,36.613855],[-88.320658,36.613854],[-88.320655,36.613741],[-88.320625,36.613743],[-88.320624,36.613718],[-88.320481,36.61372],[-88.320479,36.613955],[-88.320623,36.613952]]]}},
{"type":"Feature","properties":{"osmId":"way/1246817759","buildingId":null,"name":"AT&T","height":7,"levels":2,"source":"default"},"geometry":{"type":"Polygon","coordinates":[[[-88.320498,36.624548],[-88.320427,36.624382],[-88.320612,36.624331],[-88.320682,36.624497],[-88.320498,36.624548]]]}},
{"type":"Feature","properties":{"osmId":"way/1246817777","buildingId":null,"name":"Walgreens","height":7,"levels":2,"source":"default"},"geometry":{"type":"Polygon","coordinates":[[[-88.316289,36.610128],[-88.316296,36.609776],[-88.315905,36.609771],[-88.3159,36.610061],[-88.315959,36.610124],[-88.316289,36.610128]]]}},
{"type":"Feature","properties":{"osmId":"way/1246817778","buildingId":null,"name":"Dollar Tree","height":7,"levels":2,"source":"default"},"geometry":{"type":"Polygon","coordinates":[[[-88.316044,36.611045],[-88.316045,36.610816],[-88.315633,36.610815],[-88.315587,36.610851],[-88.315586,36.611044],[-88.316044,36.611045]]]}},
{"type":"Feature","properties":{"osmId":"way/1246817779","buildingId":null,"name":"Hardee's","height":7,"levels":2,"source":"default"},"geometry":{"type":"Polygon","coordinates":[[[-88.315579,36.617441],[-88.315576,36.617312],[-88.315794,36.617308],[-88.315797,36.617438],[-88.315579,36.617441]]]}},
{"type":"Feature","properties":{"osmId":"way/1246817780","buildingId":null,"name":"Arby's","height":7,"levels":2,"source":"default"},"geometry":{"type":"Polygon","coordinates":[[[-88.31541,36.616332],[-88.31541,36.616251],[-88.315663,36.616251],[-88.315663,36.616332],[-88.31541,36.616332]]]}},
{"type":"Feature","properties":{"osmId":"way/1246817781","buildingId":null,"name":"Fazoli's","height":7,"levels":2,"source":"default"},"geometry":{"type":"Polygon","coordinates":[[[-88.316574,36.618056],[-88.316577,36.617945],[-88.316814,36.617948],[-88.316811,36.618059],[-88.316574,36.618056]]]}},
{"type":"Feature","properties":{"osmId":"way/1246817782","buildingId":null,"name":"Taco John's","height":7,"levels":2,"source":"default"},"geometry":{"type":"Polygon","coordinates":[[[-88.313792,36.617605],[-88.313782,36.617389],[-88.313895,36.617386],[-88.313905,36.617602],[-88.313792,36.617605]]]}},
{"type":"Feature","properties":{"osmId":"way/1246817783","buildingId":null,"name":"Dollar General","height":7,"levels":2,"source":"default"},"geometry":{"type":"Polygon","coordinates":[[[-88.313148,36.618938],[-88.313138,36.618674],[-88.313543,36.618665],[-88.313552,36.618929],[-88.313171,36.618938],[-88.313148,36.618938]]]}},
{"type":"Feature","properties":{"osmId":"way/1246817784","buildingId":null,"name":"T-Mobile","height":7,"levels":2,"source":"default"},"geometry":{"type":"Polygon","coordinates":[[[-88.314615,36.619462],[-88.314318,36.619462],[-88.314318,36.619708],[-88.314615,36.619708],[-88.314615,36.619462]]]}},
{"type":"Feature","properties":{"osmId":"way/1255043505","buildingId":"bld-ac","name":"Sid Easley Alumni Center","height":10.5,"levels":3,"source":"default"},"geometry":{"type":"Polygon","coordinates":[[[-88.315584,36.619517],[-88.31546,36.619515],[-88.315462,36.619465],[-88.315393,36.619468],[-88.315392,36.619411],[-88.315408,36.619362],[-88.315473,36.619361],[-88.315473,36.619322],[-88.315575,36.619323],[-88.315574,36.619365],[-88.315673,36.619368],[-88.315671,36.619418],[-88.315658,36.619471],[-88.315592,36.619469],[-88.315584,36.619517]]]}},
{"type":"Feature","properties":{"osmId":"way/1255049336","buildingId":"bld-ch","name":"Carr Health Building","height":10.5,"levels":3,"source":"default"},"geometry":{"type":"Polygon","coordinates":[[[-88.321334,36.614062],[-88.320975,36.614062],[-88.320968,36.614185],[-88.3208,36.614187],[-88.320809,36.614214],[-88.32082,36.614495],[-88.320969,36.614495],[-88.320968,36.614786],[-88.320971,36.614818],[-88.321327,36.614823],[-88.321324,36.614769],[-88.321499,36.614776],[-88.321493,36.614636],[-88.321444,36.614636],[-88.32145,36.61449],[-88.321453,36.614394],[-88.321444,36.614251],[-88.321499,36.614251],[-88.321496,36.614101],[-88.321327,36.614106],[-88.321334,36.614062]]]}},
{"type":"Feature","properties":{"osmId":"way/1255049337","buildingId":"bld-al","name":"Alexander Hall","height":10.5,"levels":3,"source":"default"},"geometry":{"type":"Polygon","coordinates":[[[-88.325035,36.613702],[-88.324682,36.613702],[-88.324679,36.613673],[-88.324584,36.613685],[-88.324587,36.613742],[-88.324501,36.613744],[-88.324507,36.613826],[-88.324535,36.613828],[-88.324519,36.61421],[-88.324489,36.61421],[-88.324482,36.614291],[-88.324516,36.614294],[-88.324513,36.614335],[-88.324568,36.614338],[-88.324568,36.61436],[-88.324664,36.61436],[-88.324664,36.614349],[-88.324765,36.614348],[-88.324777,36.614224],[-88.324825,36.614219],[-88.324845,36.614242],[-88.324871,36.614238],[-88.324876,36.614175],[-88.324916,36.614169],[-88.325008,36.614241],[-88.325033,36.614243],[-88.325036,36.614176],[-88.325219,36.614172],[-88.325222,36.614111],[-88.325197,36.614106],[-88.3252,36.614093],[-88.325222,36.614093],[-88.325228,36.613856],[-88.325103,36.613851],[-88.325103,36.613904],[-88.32503,36.613902],[-88.325035,36.613702]]]}},
{"type":"Feature","properties":{"osmId":"way/1255049338","buildingId":"bld-la","name":"Lovett Auditorium","height":10.5,"levels":3,"source":"default"},"geometry":{"type":"Polygon","coordinates":[[[-88.322879,36.612781],[-88.322792,36.61278],[-88.322787,36.612794],[-88.322508,36.612792],[-88.322508,36.612776],[-88.322432,36.612776],[-88.322423,36.613145],[-88.322428,36.613178],[-88.32249,36.613178],[-88.322478,36.613296],[-88.322808,36.613296],[-88.322831,36.613296],[-88.322863,36.613296],[-88.322865,36.613174],[-88.322874,36.613145],[-88.322879,36.612781]]]}},
{"type":"Feature","properties":{"osmId":"way/1255049339","buildingId":"bld-old-fa","name":"Old Fine Arts","height":10.5,"levels":3,"source":"default"},"geometry":{"type":"Polygon","coordinates":[[[-88.322831,36.613296],[-88.322833,36.613484],[-88.322878,36.613481],[-88.322876,36.613553],[-88.322833,36.613553],[-88.322833,36.613567],[-88.322649,36.613563],[-88.322649,36.613597],[-88.322542,36.613597],[-88.322544,36.613559],[-88.322076,36.613563],[-88.322076,36.613508],[-88.322029,36.613506],[-88.322033,36.613351],[-88.322092,36.613349],[-88.32209,36.613297],[-88.322112,36.613294],[-88.322112,36.613266],[-88.322452,36.61326],[-88.322452,36.613297],[-88.322831,36.613296]]]}},
{"type":"Feature","properties":{"osmId":"way/1255266160","buildingId":"bld-nash","name":"Nash House","height":10.5,"levels":3,"source":"default"},"geometry":{"type":"Polygon","coordinates":[[[-88.32476,36.611521],[-88.324662,36.611517],[-88.324662,36.6115],[-88.324623,36.611498],[-88.324617,36.611623],[-88.324677,36.611623],[-88.32468,36.611608],[-88.324758,36.61161],[-88.32476,36.611521]]]}},
{"type":"Feature","properties":{"osmId":"way/1255276705","buildingId":"bld-sh","name":"Sparks Hall","height":10.5,"levels":3,"source":"default"},"geometry":{"type":"Polygon","coordinates":[[[-88.322641,36.610245],[-88.322639,36.609966],[-88.322341,36.609966],[-88.322339,36.61025],[-88.322641,36.610245]]]}},
{"type":"Feature","properties":{"osmId":"way/1255276706","buildingId":"bld-oakhurst","name":"Oakhurst","height":10.5,"levels":3,"source":"default"},"geometry":{"type":"Polygon","coordinates":[[[-88.323179,36.610136],[-88.323163,36.610065],[-88.323108,36.610069],[-88.323099,36.610044],[-88.323068,36.610049],[-88.323061,36.610021],[-88.322929,36.610034],[-88.322971,36.610222],[-88.322984,36.610222],[-88.322991,36.610238],[-88.323123,36.610222],[-88.323116,36.6102],[-88.323136,36.610198],[-88.323123,36.610144],[-88.323179,36.610136]]]}},
{"type":"Feature","properties":{"osmId":"way/1255276707","buildingId":"bld-sorority","name":"Sorority Suites","height":14,"levels":4,"source":"default"},"geometry":{"type":"Polygon","coordinates":[[[-88.323646,36.608153],[-88.323536,36.608156],[-88.323543,36.60784],[-88.323646,36.607846],[-88.323646,36.608153]]]}},
{"type":"Feature","properties":{"osmId":"way/1255276708","buildingId":"bld-sorority","name":"Sorority Suites","height":14,"levels":4,"source":"default"},"geometry":{"type":"Polygon","coordinates":[[[-88.323352,36.608155],[-88.323242,36.608158],[-88.323249,36.607842],[-88.323352,36.607847],[-88.323352,36.608155]]]}},
{"type":"Feature","properties":{"osmId":"way/1255276709","buildingId":"bld-fr","name":"Hollis Franklin College","height":14,"levels":4,"source":"default"},"geometry":{"type":"Polygon","coordinates":[[[-88.321243,36.617579],[-88.321238,36.617356],[-88.321283,36.617348],[-88.321283,36.617219],[-88.321223,36.617219],[-88.321223,36.617109],[-88.321031,36.617101],[-88.321026,36.617174],[-88.320244,36.617198],[-88.320244,36.617134],[-88.320052,36.617138],[-88.320067,36.617231],[-88.320006,36.617231],[-88.320011,36.617356],[-88.320075,36.617354],[-88.320082,36.61759],[-88.320209,36.61759],[-88.320207,36.61757],[-88.320301,36.617569],[-88.320287,36.617335],[-88.320989,36.617324],[-88.321007,36.617539],[-88.321064,36.617538],[-88.321063,36.61758],[-88.321243,36.617579]]]}},
{"type":"Feature","properties":{"osmId":"way/1255276710","buildingId":"bld-univ-club","name":"University Club","height":10.5,"levels":3,"source":"default"},"geometry":{"type":"Polygon","coordinates":[[[-88.320286,36.613753],[-88.320283,36.613613],[-88.320138,36.613615],[-88.320135,36.613757],[-88.320286,36.613753]]]}},
{"type":"Feature","properties":{"osmId":"way/1255276711","buildingId":"bld-cp","name":"A. Carman Animal Health Technology Center","height":10.5,"levels":3,"source":"default"},"geometry":{"type":"Polygon","coordinates":[[[-88.340711,36.617017],[-88.340727,36.616796],[-88.33994,36.61675],[-88.339916,36.616978],[-88.340711,36.617017]]]}},
{"type":"Feature","properties":{"osmId":"way/1255280306","buildingId":null,"name":"Newman Catholic Center","height":7,"levels":2,"source":"default"},"geometry":{"type":"Polygon","coordinates":[[[-88.316295,36.614789],[-88.316303,36.61494],[-88.31632,36.614937],[-88.31632,36.614948],[-88.316387,36.614946],[-88.31638,36.614894],[-88.316395,36.614892],[-88.316392,36.614861],[-88.31638,36.614864],[-88.316372,36.614792],[-88.316295,36.614789]]]}},
{"type":"Feature","properties":{"osmId":"way/1299082870","buildingId":null,"name":"Calloway County High School","height":10.5,"levels":3,"source":"default"},"geometry":{"type":"Polygon","coordinates":[[[-88.340122,36.618069],[-88.340087,36.618731],[-88.341993,36.618838],[-88.342018,36.618372],[-88.34246,36.618396],[-88.342514,36.617842],[-88.342202,36.617822],[-88.342167,36.618141],[-88.341983,36.618129],[-88.341983,36.618165],[-88.340122,36.618069]]]}},
{"type":"Feature","properties":{"osmId":"way/1299082871","buildingId":null,"name":"Calloway County Middle School","height":10.5,"levels":3,"source":"default"},"geometry":{"type":"Polygon","coordinates":[[[-88.343274,36.620057],[-88.342797,36.620053],[-88.342792,36.620169],[-88.342241,36.620161],[-88.342236,36.620065],[-88.341929,36.620057],[-88.341904,36.619619],[-88.342281,36.619627],[-88.342286,36.619675],[-88.342584,36.619679],[-88.342589,36.61887],[-88.343299,36.618882],[-88.343304,36.619253],[-88.342867,36.619241],[-88.342872,36.619316],[-88.343269,36.619328],[-88.343259,36.619556],[-88.342857,36.619544],[-88.342852,36.619826],[-88.343279,36.619834],[-88.343274,36.620057]]]}},
{"type":"Feature","properties":{"osmId":"way/1299082872","buildingId":null,"name":"Calloway County Preschool","height":10.5,"levels":3,"source":"default"},"geometry":{"type":"Polygon","coordinates":[[[-88.339452,36.619862],[-88.339462,36.6194],[-88.339879,36.619412],[-88.339879,36.61987],[-88.339452,36.619862]]]}},
{"type":"Feature","properties":{"osmId":"way/1299088375","buildingId":null,"name":"Hampton Inn & Suites","height":7,"levels":2,"source":"default"},"geometry":{"type":"Polygon","coordinates":[[[-88.320306,36.625299],[-88.320271,36.6252],[-88.320334,36.625184],[-88.32032,36.625134],[-88.320217,36.625154],[-88.320105,36.625172],[-88.320093,36.625156],[-88.320036,36.62517],[-88.319993,36.625055],[-88.320059,36.625041],[-88.320159,36.625009],[-88.320182,36.624995],[-88.320291,36.62497],[-88.32036,36.624942],[-88.32038,36.624924],[-88.320357,36.624815],[-88.320486,36.624785],[-88.320523,36.62491],[-88.320753,36.624868],[-88.320856,36.62485],[-88.320928,36.624845],[-88.320971,36.62497],[-88.320908,36.624993],[-88.320799,36.625025],[-88.320684,36.625052],[-88.320575,36.625087],[-88.320492,36.625114],[-88.320543,36.625253],[-88.320306,36.625299]]]}},
{"type":"Feature","properties":{"osmId":"way/1299110254","buildingId":null,"name":"KFC","height":7,"levels":2,"source":"default"},"geometry":{"type":"Polygon","coordinates":[[[-88.314765,36.617363],[-88.314475,36.617363],[-88.314478,36.617486],[-88.314772,36.617482],[-88.314765,36.617363]]]}},
{"type":"Feature","properties":{"osmId":"way/1299110255","buildingId":null,"name":"","height":7,"levels":2,"source":"default"},"geometry":{"type":"Polygon","coordinates":[[[-88.314509,36.617696],[-88.314534,36.618093],[-88.314725,36.618088],[-88.314707,36.617691],[-88.314509,36.617696]]]}},
{"type":"Feature","properties":{"osmId":"way/1299539363","buildingId":null,"name":"","height":7,"levels":2,"source":"default"},"geometry":{"type":"Polygon","coordinates":[[[-88.314519,36.606508],[-88.314508,36.606368],[-88.314716,36.606357],[-88.31497,36.606366],[-88.314968,36.606407],[-88.314872,36.606407],[-88.314875,36.606445],[-88.314963,36.606435],[-88.314974,36.606476],[-88.314726,36.6065],[-88.314519,36.606508]]]}},
{"type":"Feature","properties":{"osmId":"way/1299539364","buildingId":null,"name":"","height":7,"levels":2,"source":"default"},"geometry":{"type":"Polygon","coordinates":[[[-88.31461,36.606866],[-88.314607,36.606775],[-88.314719,36.606776],[-88.314722,36.606867],[-88.31461,36.606866]]]}},
{"type":"Feature","properties":{"osmId":"way/1299539365","buildingId":null,"name":"","height":7,"levels":2,"source":"default"},"geometry":{"type":"Polygon","coordinates":[[[-88.314762,36.606843],[-88.314764,36.606771],[-88.314805,36.60677],[-88.314805,36.606746],[-88.314956,36.606749],[-88.314957,36.606832],[-88.314909,36.606831],[-88.314911,36.606871],[-88.314827,36.606872],[-88.314824,36.606846],[-88.314762,36.606843]]]}},
{"type":"Feature","properties":{"osmId":"way/1299539366","buildingId":null,"name":"","height":7,"levels":2,"source":"default"},"geometry":{"type":"Polygon","coordinates":[[[-88.315443,36.607016],[-88.315444,36.607121],[-88.315506,36.60712],[-88.315506,36.607201],[-88.315646,36.607201],[-88.315645,36.607068],[-88.31561,36.607068],[-88.31561,36.607097],[-88.315558,36.607097],[-88.315558,36.607015],[-88.315443,36.607016]]]}},
{"type":"Feature","properties":{"osmId":"way/1299539367","buildingId":null,"name":"","height":7,"levels":2,"source":"default"},"geometry":{"type":"Polygon","coordinates":[[[-88.314731,36.607288],[-88.31473,36.607189],[-88.314744,36.607153],[-88.314736,36.607036],[-88.314871,36.607041],[-88.314874,36.607072],[-88.314929,36.607073],[-88.314933,36.607111],[-88.314914,36.607112],[-88.314914,36.607169],[-88.314929,36.607193],[-88.314908,36.60721],[-88.314906,36.607292],[-88.314731,36.607288]]]}},
{"type":"Feature","properties":{"osmId":"way/1299539368","buildingId":null,"name":"","height":7,"levels":2,"source":"default"},"geometry":{"type":"Polygon","coordinates":[[[-88.315448,36.607358],[-88.315535,36.607358],[-88.315535,36.607377],[-88.315672,36.607377],[-88.315672,36.607453],[-88.315448,36.607453],[-88.315448,36.607358]]]}},
{"type":"Feature","properties":{"osmId":"way/1299539369","buildingId":null,"name":"","height":7,"levels":2,"source":"default"},"geometry":{"type":"Polygon","coordinates":[[[-88.315499,36.60756],[-88.315658,36.60756],[-88.315657,36.607686],[-88.315499,36.607686],[-88.315499,36.60756]]]}},
{"type":"Feature","properties":{"osmId":"way/1299539370","buildingId":null,"name":"","height":7,"levels":2,"source":"default"},"geometry":{"type":"Polygon","coordinates":[[[-88.315459,36.607768],[-88.315461,36.607872],[-88.31553,36.607871],[-88.31553,36.607913],[-88.315717,36.607911],[-88.315716,36.607809],[-88.315578,36.60781],[-88.315577,36.607767],[-88.315459,36.607768]]]}},
{"type":"Feature","properties":{"osmId":"way/1299539371","buildingId":null,"name":"","height":7,"levels":2,"source":"default"},"geometry":{"type":"Polygon","coordinates":[[[-88.314988,36.60801],[-88.314987,36.6079],[-88.314886,36.607902],[-88.314886,36.607931],[-88.314815,36.607934],[-88.314815,36.60801],[-88.314988,36.60801]]]}},
{"type":"Feature","properties":{"osmId":"way/1299539372","buildingId":null,"name":"","height":7,"levels":2,"source":"default"},"geometry":{"type":"Polygon","coordinates":[[[-88.314912,36.608211],[-88.314933,36.608212],[-88.314936,36.608236],[-88.314991,36.608236],[-88.314991,36.608211],[-88.314977,36.608211],[-88.314976,36.608103],[-88.314914,36.6081],[-88.314912,36.608211]]]}},
{"type":"Feature","properties":{"osmId":"way/1299539373","buildingId":null,"name":"","height":7,"levels":2,"source":"default"},"geometry":{"type":"Polygon","coordinates":[[[-88.315575,36.608926],[-88.315839,36.608925],[-88.315836,36.608699],[-88.315572,36.608699],[-88.315575,36.608926]]]}},
{"type":"Feature","properties":{"osmId":"way/1299539374","buildingId":null,"name":"","height":7,"levels":2,"source":"default"},"geometry":{"type":"Polygon","coordinates":[[[-88.314816,36.608832],[-88.314912,36.608832],[-88.314911,36.608704],[-88.314812,36.608702],[-88.314816,36.608832]]]}},
{"type":"Feature","properties":{"osmId":"way/1299539375","buildingId":null,"name":"","height":7,"levels":2,"source":"default"},"geometry":{"type":"Polygon","coordinates":[[[-88.315572,36.609317],[-88.315572,36.609275],[-88.315585,36.609275],[-88.315584,36.609133],[-88.315784,36.609132],[-88.315784,36.609142],[-88.315807,36.609142],[-88.315808,36.609185],[-88.315788,36.609185],[-88.315789,36.609301],[-88.315755,36.609302],[-88.315755,36.609322],[-88.315664,36.609322],[-88.315664,36.6093],[-88.315622,36.6093],[-88.315622,36.609316],[-88.315572,36.609317]]]}},
{"type":"Feature","properties":{"osmId":"way/1299539376","buildingId":null,"name":"","height":14,"levels":4,"source":"default"},"geometry":{"type":"Polygon","coordinates":[[[-88.314598,36.60958],[-88.314601,36.609676],[-88.314656,36.609675],[-88.314658,36.609726],[-88.3146,36.609727],[-88.314603,36.609823],[-88.314988,36.609815],[-88.314986,36.609723],[-88.314898,36.609724],[-88.314897,36.609672],[-88.314988,36.609671],[-88.314985,36.609573],[-88.314598,36.60958]]]}},
{"type":"Feature","properties":{"osmId":"way/1299539377","buildingId":null,"name":"","height":14,"levels":4,"source":"default"},"geometry":{"type":"Polygon","coordinates":[[[-88.314276,36.60985],[-88.314282,36.609538],[-88.31416,36.609536],[-88.314154,36.609849],[-88.314276,36.60985]]]}},
{"type":"Feature","properties":{"osmId":"way/1299539378","buildingId":null,"name":"","height":14,"levels":4,"source":"default"},"geometry":{"type":"Polygon","coordinates":[[[-88.314279,36.609483],[-88.314161,36.60948],[-88.314184,36.609031],[-88.314302,36.609035],[-88.314279,36.609483]]]}},
{"type":"Feature","properties":{"osmId":"way/1299539379","buildingId":null,"name":"","height":7,"levels":2,"source":"default"},"geometry":{"type":"Polygon","coordinates":[[[-88.314421,36.610083],[-88.314518,36.610162],[-88.314486,36.610187],[-88.314671,36.610338],[-88.314878,36.610175],[-88.314691,36.610022],[-88.314587,36.610104],[-88.314493,36.610026],[-88.314421,36.610083]]]}},
{"type":"Feature","properties":{"osmId":"way/1299539380","buildingId":null,"name":"","height":7,"levels":2,"source":"default"},"geometry":{"type":"Polygon","coordinates":[[[-88.315515,36.609806],[-88.315728,36.609806],[-88.315727,36.609633],[-88.315658,36.609633],[-88.315658,36.609718],[-88.315515,36.609718],[-88.315515,36.609806]]]}},
{"type":"Feature","properties":{"osmId":"way/1299539381","buildingId":null,"name":"","height":7,"levels":2,"source":"default"},"geometry":{"type":"Polygon","coordinates":[[[-88.314573,36.611261],[-88.314562,36.610886],[-88.314666,36.610883],[-88.314665,36.610863],[-88.314835,36.610857],[-88.314841,36.610984],[-88.314824,36.610985],[-88.314832,36.611259],[-88.314573,36.611261]]]}},
{"type":"Feature","properties":{"osmId":"way/1299539382","buildingId":null,"name":"","height":7,"levels":2,"source":"default"},"geometry":{"type":"Polygon","coordinates":[[[-88.315457,36.611673],[-88.315458,36.611559],[-88.315523,36.611559],[-88.315523,36.611548],[-88.31593,36.611549],[-88.315929,36.611675],[-88.315457,36.611673]]]}},
{"type":"Feature","properties":{"osmId":"way/1299539383","buildingId":null,"name":"","height":7,"levels":2,"source":"default"},"geometry":{"type":"Polygon","coordinates":[[[-88.314768,36.6117],[-88.314767,36.611612],[-88.314671,36.611613],[-88.314674,36.611702],[-88.314768,36.6117]]]}},
{"type":"Feature","properties":{"osmId":"way/1299539384","buildingId":null,"name":"","height":7,"levels":2,"source":"default"},"geometry":{"type":"Polygon","coordinates":[[[-88.314838,36.611835],[-88.314838,36.61174],[-88.314977,36.61174],[-88.314977,36.611765],[-88.315007,36.611765],[-88.315007,36.611813],[-88.314985,36.611813],[-88.314985,36.611836],[-88.314838,36.611835]]]}},
{"type":"Feature","properties":{"osmId":"way/1299539385","buildingId":null,"name":"","height":7,"levels":2,"source":"default"},"geometry":{"type":"Polygon","coordinates":[[[-88.315004,36.611932],[-88.314768,36.611933],[-88.314771,36.612022],[-88.315005,36.612022],[-88.315004,36.611932]]]}},
{"type":"Feature","properties":{"osmId":"way/1299539386","buildingId":null,"name":"","height":7,"levels":2,"source":"default"},"geometry":{"type":"Polygon","coordinates":[[[-88.314888,36.612058],[-88.314767,36.612057],[-88.31477,36.612419],[-88.314888,36.612419],[-88.314888,36.612058]]]}},
{"type":"Feature","properties":{"osmId":"way/1299539387","buildingId":null,"name":"","height":7,"levels":2,"source":"default"},"geometry":{"type":"Polygon","coordinates":[[[-88.315733,36.61239],[-88.315727,36.612241],[-88.315535,36.612246],[-88.315537,36.612303],[-88.315492,36.612304],[-88.315493,36.61234],[-88.315535,36.612339],[-88.315537,36.612394],[-88.315733,36.61239]]]}},
{"type":"Feature","properties":{"osmId":"way/1299539388","buildingId":null,"name":"","height":7,"levels":2,"source":"default"},"geometry":{"type":"Polygon","coordinates":[[[-88.314732,36.613006],[-88.314901,36.613006],[-88.314899,36.61272],[-88.31473,36.61272],[-88.314732,36.613006]]]}},
{"type":"Feature","properties":{"osmId":"way/1299539389","buildingId":null,"name":"","height":7,"levels":2,"source":"default"},"geometry":{"type":"Polygon","coordinates":[[[-88.315544,36.612977],[-88.315543,36.612929],[-88.31556,36.612929],[-88.315558,36.61276],[-88.315535,36.61276],[-88.315534,36.612717],[-88.315682,36.612716],[-88.315682,36.612732],[-88.315774,36.612731],[-88.315777,36.612975],[-88.315544,36.612977]]]}},
{"type":"Feature","properties":{"osmId":"way/1299539390","buildingId":null,"name":"","height":7,"levels":2,"source":"default"},"geometry":{"type":"Polygon","coordinates":[[[-88.315435,36.613407],[-88.315643,36.613412],[-88.315644,36.613394],[-88.315697,36.613395],[-88.315699,36.613317],[-88.315647,36.613316],[-88.315648,36.613268],[-88.315531,36.613265],[-88.315533,36.613219],[-88.315476,36.613218],[-88.315474,36.613272],[-88.315442,36.613271],[-88.315442,36.613288],[-88.31542,36.613288],[-88.315417,36.613352],[-88.315437,36.613352],[-88.315435,36.613407]]]}},
{"type":"Feature","properties":{"osmId":"way/1299539391","buildingId":null,"name":"","height":7,"levels":2,"source":"default"},"geometry":{"type":"Polygon","coordinates":[[[-88.314573,36.613742],[-88.314573,36.613767],[-88.31477,36.613772],[-88.314776,36.613434],[-88.314581,36.613432],[-88.314575,36.613665],[-88.314494,36.613664],[-88.314429,36.613664],[-88.314431,36.613738],[-88.314493,36.61374],[-88.314573,36.613742]]]}},
{"type":"Feature","properties":{"osmId":"way/1299539392","buildingId":null,"name":"","height":7,"levels":2,"source":"default"},"geometry":{"type":"Polygon","coordinates":[[[-88.315524,36.613748],[-88.315526,36.613894],[-88.315599,36.6139],[-88.315599,36.613952],[-88.315552,36.613953],[-88.315552,36.614031],[-88.315605,36.614029],[-88.315606,36.614145],[-88.315537,36.614146],[-88.315537,36.614303],[-88.315603,36.614303],[-88.315603,36.614514],[-88.315831,36.614513],[-88.315823,36.614292],[-88.315749,36.614292],[-88.315746,36.614162],[-88.315814,36.61416],[-88.315803,36.613741],[-88.315524,36.613748]]]}},
{"type":"Feature","properties":{"osmId":"way/1299539393","buildingId":null,"name":"","height":7,"levels":2,"source":"default"},"geometry":{"type":"Polygon","coordinates":[[[-88.314629,36.614397],[-88.314778,36.614396],[-88.314784,36.614175],[-88.314632,36.614174],[-88.314629,36.614397]]]}},
{"type":"Feature","properties":{"osmId":"way/1299539394","buildingId":null,"name":"","height":7,"levels":2,"source":"default"},"geometry":{"type":"Polygon","coordinates":[[[-88.314772,36.614703],[-88.314935,36.614702],[-88.314935,36.614609],[-88.314961,36.614609],[-88.31496,36.614545],[-88.314932,36.614545],[-88.314932,36.614534],[-88.314809,36.614535],[-88.31481,36.614616],[-88.314772,36.614616],[-88.314772,36.614703]]]}},
{"type":"Feature","properties":{"osmId":"way/1299539395","buildingId":null,"name":"","height":7,"levels":2,"source":"default"},"geometry":{"type":"Polygon","coordinates":[[[-88.315516,36.614838],[-88.315517,36.614806],[-88.315506,36.614806],[-88.315507,36.614761],[-88.315516,36.614761],[-88.315516,36.614748],[-88.315488,36.614748],[-88.315489,36.61469],[-88.315511,36.61469],[-88.315513,36.614637],[-88.315525,36.614637],[-88.315526,36.614605],[-88.315706,36.614607],[-88.315705,36.614651],[-88.315766,36.614652],[-88.315765,36.614716],[-88.315703,36.614715],[-88.3157,36.61484],[-88.315516,36.614838]]]}},
{"type":"Feature","properties":{"osmId":"way/1299539396","buildingId":null,"name":"","height":7,"levels":2,"source":"default"},"geometry":{"type":"Polygon","coordinates":[[[-88.314591,36.614962],[-88.314802,36.614965],[-88.314803,36.61491],[-88.314816,36.61491],[-88.314817,36.614846],[-88.314799,36.614846],[-88.3148,36.614789],[-88.314595,36.614785],[-88.314591,36.614962]]]}},
{"type":"Feature","properties":{"osmId":"way/1299539397","buildingId":null,"name":"","height":7,"levels":2,"source":"default"},"geometry":{"type":"Polygon","coordinates":[[[-88.314708,36.615084],[-88.314708,36.614984],[-88.314879,36.614984],[-88.314879,36.615084],[-88.314708,36.615084]]]}},
{"type":"Feature","properties":{"osmId":"way/1299539398","buildingId":null,"name":"","height":7,"levels":2,"source":"default"},"geometry":{"type":"Polygon","coordinates":[[[-88.315542,36.615094],[-88.315541,36.615081],[-88.315525,36.615081],[-88.315523,36.61505],[-88.315538,36.61505],[-88.315537,36.615038],[-88.315719,36.615033],[-88.315722,36.615089],[-88.315636,36.615092],[-88.315637,36.615101],[-88.31559,36.615103],[-88.31559,36.615093],[-88.315542,36.615094]]]}},
{"type":"Feature","properties":{"osmId":"way/1299539399","buildingId":null,"name":"","height":7,"levels":2,"source":"default"},"geometry":{"type":"Polygon","coordinates":[[[-88.31489,36.615397],[-88.314888,36.615332],[-88.314753,36.615335],[-88.314755,36.6154],[-88.31489,36.615397]]]}},
{"type":"Feature","properties":{"osmId":"way/1299539400","buildingId":null,"name":"","height":7,"levels":2,"source":"default"},"geometry":{"type":"Polygon","coordinates":[[[-88.314612,36.615864],[-88.314612,36.615876],[-88.314675,36.615876],[-88.314675,36.615869],[-88.31473,36.615868],[-88.31473,36.615842],[-88.314741,36.615842],[-88.31474,36.615796],[-88.314725,36.615797],[-88.314724,36.615772],[-88.314668,36.615773],[-88.314668,36.615763],[-88.314606,36.615764],[-88.314606,36.615775],[-88.314503,36.615777],[-88.314505,36.615865],[-88.314612,36.615864]]]}},
{"type":"Feature","properties":{"osmId":"way/1299539401","buildingId":null,"name":"","height":7,"levels":2,"source":"default"},"geometry":{"type":"Polygon","coordinates":[[[-88.314548,36.616461],[-88.314754,36.616462],[-88.314754,36.616431],[-88.314737,36.616431],[-88.314737,36.616349],[-88.314757,36.616349],[-88.314757,36.616304],[-88.314637,36.616304],[-88.314637,36.616263],[-88.314549,36.616263],[-88.314548,36.616461]]]}},
{"type":"Feature","properties":{"osmId":"way/1299539402","buildingId":null,"name":"","height":7,"levels":2,"source":"default"},"geometry":{"type":"Polygon","coordinates":[[[-88.314598,36.616799],[-88.314734,36.616795],[-88.314729,36.616707],[-88.314745,36.616707],[-88.314742,36.616655],[-88.31472,36.616656],[-88.314717,36.616607],[-88.314685,36.616608],[-88.314684,36.616593],[-88.314697,36.616593],[-88.314695,36.616569],[-88.314611,36.616572],[-88.314613,36.616611],[-88.314587,36.616612],[-88.314591,36.616682],[-88.314575,36.616682],[-88.314576,36.616708],[-88.314593,36.616707],[-88.314598,36.616799]]]}},
{"type":"Feature","properties":{"osmId":"way/1299539403","buildingId":null,"name":"","height":7,"levels":2,"source":"default"},"geometry":{"type":"Polygon","coordinates":[[[-88.315488,36.616714],[-88.315487,36.616754],[-88.315674,36.616758],[-88.315675,36.616715],[-88.315654,36.616714],[-88.315656,36.61664],[-88.315608,36.61664],[-88.315609,36.616617],[-88.315657,36.616618],[-88.315658,36.616599],[-88.315571,36.616597],[-88.31557,36.616639],[-88.315559,36.616639],[-88.315557,36.616715],[-88.315488,36.616714]]]}},
{"type":"Feature","properties":{"osmId":"way/1299539404","buildingId":null,"name":"","height":7,"levels":2,"source":"default"},"geometry":{"type":"Polygon","coordinates":[[[-88.315617,36.618024],[-88.315808,36.61802],[-88.315807,36.617969],[-88.315986,36.617966],[-88.315981,36.617823],[-88.315805,36.617827],[-88.315803,36.617775],[-88.315613,36.617779],[-88.315616,36.617877],[-88.315541,36.617879],[-88.315543,36.617928],[-88.315614,36.617927],[-88.315617,36.618024]]]}},
{"type":"Feature","properties":{"osmId":"way/1299539405","buildingId":null,"name":"","height":7,"levels":2,"source":"default"},"geometry":{"type":"Polygon","coordinates":[[[-88.315616,36.618559],[-88.315858,36.618554],[-88.315852,36.618336],[-88.31561,36.61834],[-88.315616,36.618559]]]}},
{"type":"Feature","properties":{"osmId":"way/1299539406","buildingId":null,"name":"","height":7,"levels":2,"source":"default"},"geometry":{"type":"Polygon","coordinates":[[[-88.315671,36.618881],[-88.315673,36.618944],[-88.315877,36.61894],[-88.315875,36.618875],[-88.31601,36.618872],[-88.316007,36.618791],[-88.315872,36.618794],[-88.31587,36.618723],[-88.315666,36.618727],[-88.315669,36.618795],[-88.31562,36.618796],[-88.315623,36.618882],[-88.315671,36.618881]]]}},
{"type":"Feature","properties":{"osmId":"way/1299539407","buildingId":null,"name":"Olympic Plaza","height":7,"levels":2,"source":"default"},"geometry":{"type":"Polygon","coordinates":[[[-88.313552,36.618929],[-88.313533,36.618444],[-88.31444,36.618417],[-88.314442,36.618437],[-88.314732,36.618426],[-88.314723,36.618272],[-88.313142,36.618324],[-88.313171,36.618938],[-88.313552,36.618929]]]}},
{"type":"Feature","properties":{"osmId":"way/1299539409","buildingId":null,"name":"","height":7,"levels":2,"source":"default"},"geometry":{"type":"Polygon","coordinates":[[[-88.314156,36.618179],[-88.314339,36.61817],[-88.31433,36.618026],[-88.314149,36.618033],[-88.314156,36.618179]]]}},
{"type":"Feature","properties":{"osmId":"way/1299539410","buildingId":null,"name":"","height":7,"levels":2,"source":"default"},"geometry":{"type":"Polygon","coordinates":[[[-88.314246,36.617749],[-88.31428,36.617748],[-88.314322,36.617747],[-88.3143,36.617363],[-88.314263,36.617364],[-88.314206,36.617367],[-88.314216,36.617536],[-88.314234,36.617531],[-88.314246,36.617749]]]}},
{"type":"Feature","properties":{"osmId":"way/1299539411","buildingId":null,"name":"","height":7,"levels":2,"source":"default"},"geometry":{"type":"Polygon","coordinates":[[[-88.314313,36.620149],[-88.314318,36.619967],[-88.314572,36.619971],[-88.314567,36.620153],[-88.314313,36.620149]]]}},
{"type":"Feature","properties":{"osmId":"way/1299539412","buildingId":null,"name":"Cracker Barrel","height":7,"levels":2,"source":"default"},"geometry":{"type":"Polygon","coordinates":[[[-88.31423,36.620952],[-88.31452,36.620956],[-88.314527,36.620631],[-88.314232,36.620628],[-88.31423,36.620952]]]}},
{"type":"Feature","properties":{"osmId":"way/1299539413","buildingId":null,"name":"Panera Bread","height":7,"levels":2,"source":"default"},"geometry":{"type":"Polygon","coordinates":[[[-88.313881,36.621782],[-88.314078,36.621786],[-88.314084,36.621592],[-88.313888,36.621588],[-88.313881,36.621782]]]}},
{"type":"Feature","properties":{"osmId":"way/1299539416","buildingId":null,"name":"","height":7,"levels":2,"source":"default"},"geometry":{"type":"Polygon","coordinates":[[[-88.314315,36.62223],[-88.314339,36.622241],[-88.31442,36.622241],[-88.314421,36.622175],[-88.314454,36.622175],[-88.314455,36.622118],[-88.314428,36.622118],[-88.314428,36.622053],[-88.314348,36.622053],[-88.314348,36.622008],[-88.314312,36.622008],[-88.314312,36.622052],[-88.314226,36.622052],[-88.314225,36.622153],[-88.314108,36.622246],[-88.314201,36.622321],[-88.314315,36.62223]]]}},
{"type":"Feature","properties":{"osmId":"way/1299539417","buildingId":null,"name":"","height":7,"levels":2,"source":"default"},"geometry":{"type":"Polygon","coordinates":[[[-88.314529,36.62289],[-88.314435,36.622888],[-88.31444,36.622852],[-88.31427,36.622845],[-88.314274,36.622759],[-88.314435,36.622761],[-88.314435,36.622721],[-88.314531,36.622723],[-88.314529,36.62289]]]}},
{"type":"Feature","properties":{"osmId":"way/1299539419","buildingId":null,"name":"","height":7,"levels":2,"source":"default"},"geometry":{"type":"Polygon","coordinates":[[[-88.314404,36.623229],[-88.314405,36.623185],[-88.314444,36.623186],[-88.314444,36.623145],[-88.314406,36.623146],[-88.314404,36.623089],[-88.314377,36.623089],[-88.314377,36.623062],[-88.314236,36.623058],[-88.314236,36.623082],[-88.314214,36.623082],[-88.314219,36.623112],[-88.314154,36.62311],[-88.31416,36.623152],[-88.314216,36.623152],[-88.314216,36.623173],[-88.31416,36.623166],[-88.314169,36.623213],[-88.314216,36.623213],[-88.314216,36.623227],[-88.314404,36.623229]]]}},
{"type":"Feature","properties":{"osmId":"way/1299539420","buildingId":null,"name":"","height":7,"levels":2,"source":"default"},"geometry":{"type":"Polygon","coordinates":[[[-88.313792,36.624161],[-88.313804,36.623762],[-88.313434,36.623755],[-88.313486,36.622102],[-88.313167,36.622095],[-88.313165,36.622142],[-88.312734,36.622134],[-88.312713,36.622818],[-88.313086,36.622825],[-88.313057,36.62375],[-88.312969,36.623748],[-88.312956,36.624144],[-88.313792,36.624161]]]}},
{"type":"Feature","properties":{"osmId":"way/1454532438","buildingId":null,"name":"","height":7,"levels":2,"source":"default"},"geometry":{"type":"Polygon","coordinates":[[[-88.340928,36.624226],[-88.341074,36.623882],[-88.341356,36.623959],[-88.341336,36.624006],[-88.341588,36.624075],[-88.341491,36.624303],[-88.341415,36.624283],[-88.341414,36.624286],[-88.341325,36.624262],[-88.341304,36.62431],[-88.341068,36.624245],[-88.341061,36.624262],[-88.340928,36.624226]]]}},
{"type":"Feature","properties":{"osmId":"way/1458245588","buildingId":null,"name":"","height":7,"levels":2,"source":"default"},"geometry":{"type":"Polygon","coordinates":[[[-88.321302,36.612031],[-88.321572,36.612031],[-88.321573,36.612123],[-88.321302,36.612123],[-88.321302,36.612031]]]}},
{"type":"Feature","properties":{"osmId":"way/1458245754","buildingId":null,"name":"","height":7,"levels":2,"source":"default"},"geometry":{"type":"Polygon","coordinates":[[[-88.321572,36.612031],[-88.321302,36.612031],[-88.321302,36.611951],[-88.321572,36.611951],[-88.321572,36.612031]]]}},
{"type":"Feature","properties":{"osmId":"way/1471759480","buildingId":null,"name":"","height":7,"levels":2,"source":"default"},"geometry":{"type":"Polygon","coordinates":[[[-88.337643,36.624198],[-88.337642,36.624076],[-88.337462,36.624078],[-88.337462,36.624121],[-88.337463,36.624199],[-88.337483,36.624198],[-88.337643,36.624198]]]}},
{"type":"Feature","properties":{"osmId":"way/1471759481","buildingId":null,"name":"","height":4,"levels":1,"source":"default"},"geometry":{"type":"Polygon","coordinates":[[[-88.337643,36.624198],[-88.337644,36.624451],[-88.337484,36.624452],[-88.337483,36.624198],[-88.337643,36.624198]]]}},
{"type":"Feature","properties":{"osmId":"way/249922481","buildingId":"bld-cfsb","name":"CFSB Center","height":10.5,"levels":3,"source":"default"},"geometry":{"type":"Polygon","coordinates":[[[-88.320529,36.62293],[-88.320527,36.622983],[-88.3204,36.623095],[-88.320356,36.62314],[-88.320359,36.623243],[-88.32027,36.623244],[-88.320262,36.623352],[-88.320066,36.623352],[-88.320062,36.623386],[-88.320018,36.623386],[-88.320017,36.623397],[-88.319863,36.623391],[-88.319859,36.623353],[-88.319701,36.623351],[-88.3197,36.623256],[-88.319543,36.623258],[-88.319495,36.623224],[-88.319492,36.623105],[-88.319456,36.623104],[-88.319457,36.623141],[-88.319377,36.623138],[-88.3192,36.622982],[-88.319204,36.622929],[-88.319248,36.62293],[-88.319256,36.622404],[-88.319211,36.622403],[-88.319209,36.622355],[-88.319403,36.622197],[-88.319468,36.622197],[-88.319469,36.622226],[-88.320279,36.622222],[-88.32028,36.622199],[-88.320342,36.622198],[-88.320413,36.622253],[-88.320536,36.622356],[-88.320534,36.622407],[-88.320515,36.622405],[-88.320507,36.622929],[-88.320529,36.62293]]]}},
{"type":"Feature","properties":{"osmId":"way/310537613","buildingId":"bld-cherry-expo","name":"William Bill Cherry Agricultural Exposition Center","height":10.5,"levels":3,"source":"default"},"geometry":{"type":"Polygon","coordinates":[[[-88.339589,36.616976],[-88.339629,36.61653],[-88.33828,36.616424],[-88.33824,36.616937],[-88.339589,36.616976]]]}},
{"type":"Feature","properties":{"osmId":"way/448207524","buildingId":null,"name":"","height":7,"levels":2,"source":"default"},"geometry":{"type":"Polygon","coordinates":[[[-88.33067,36.614054],[-88.330676,36.613933],[-88.330754,36.613936],[-88.330758,36.613862],[-88.330537,36.613854],[-88.330526,36.614051],[-88.330661,36.614056],[-88.33067,36.614054]]]}},
{"type":"Feature","properties":{"osmId":"way/639897690","buildingId":"bld-golf","name":"Indoor Golf Training Facility","height":10.5,"levels":3,"source":"default"},"geometry":{"type":"Polygon","coordinates":[[[-88.318468,36.62065],[-88.318232,36.620734],[-88.317858,36.620846],[-88.317908,36.621246],[-88.317894,36.621565],[-88.317858,36.621871],[-88.318249,36.621939],[-88.318451,36.621982],[-88.318565,36.621465],[-88.318562,36.621051],[-88.318468,36.62065]]]}},
{"type":"Feature","properties":{"osmId":"way/656627982","buildingId":null,"name":"Harbor Freight Tools","height":7,"levels":2,"source":"default"},"geometry":{"type":"Polygon","coordinates":[[[-88.313089,36.623949],[-88.312947,36.623947],[-88.312956,36.624144],[-88.313792,36.624161],[-88.313797,36.623959],[-88.313454,36.623954],[-88.313089,36.623949]]]}},
{"type":"Feature","properties":{"osmId":"way/737963909","buildingId":null,"name":"Cheri Theatres","height":7,"levels":2,"source":"default"},"geometry":{"type":"Polygon","coordinates":[[[-88.312891,36.618096],[-88.312864,36.618096],[-88.312868,36.618247],[-88.313139,36.618243],[-88.313138,36.618202],[-88.31318,36.618201],[-88.313181,36.618246],[-88.313405,36.618243],[-88.313403,36.618176],[-88.313556,36.618174],[-88.313551,36.617971],[-88.313587,36.617971],[-88.313584,36.617832],[-88.313543,36.617832],[-88.313541,36.617744],[-88.313441,36.617745],[-88.313356,36.617851],[-88.313316,36.617851],[-88.313314,36.617783],[-88.313187,36.617785],[-88.313189,36.617862],[-88.313099,36.617864],[-88.313057,36.617824],[-88.312909,36.617827],[-88.312912,36.617927],[-88.312886,36.617928],[-88.312891,36.618096]]]}},
{"type":"Feature","properties":{"osmId":"way/783296947","buildingId":null,"name":"University Church of Christ","height":7,"levels":2,"source":"default"},"geometry":{"type":"Polygon","coordinates":[[[-88.315681,36.625163],[-88.315925,36.625161],[-88.316138,36.624972],[-88.31613,36.624753],[-88.316088,36.624753],[-88.316085,36.624687],[-88.315996,36.62469],[-88.315998,36.62476],[-88.315976,36.62476],[-88.315978,36.624804],[-88.315912,36.624805],[-88.31591,36.624744],[-88.315733,36.624748],[-88.315628,36.62484],[-88.315631,36.624998],[-88.315696,36.624997],[-88.315697,36.625049],[-88.315672,36.62505],[-88.315672,36.625068],[-88.31558,36.625069],[-88.315581,36.625136],[-88.31568,36.625135],[-88.315681,36.625163]]]}},
{"type":"Feature","properties":{"osmId":"way/989795510","buildingId":null,"name":"","height":7,"levels":2,"source":"default"},"geometry":{"type":"Polygon","coordinates":[[[-88.324927,36.607397],[-88.324808,36.607398],[-88.324808,36.607432],[-88.32472,36.607432],[-88.32472,36.607441],[-88.324612,36.607442],[-88.324612,36.607389],[-88.324575,36.607389],[-88.324575,36.607314],[-88.324616,36.607314],[-88.324616,36.607305],[-88.324768,36.607304],[-88.324768,36.607314],[-88.324926,36.607313],[-88.324927,36.607397]]]}},
{"type":"Feature","properties":{"osmId":"way/989795511","buildingId":null,"name":"","height":7,"levels":2,"source":"default"},"geometry":{"type":"Polygon","coordinates":[[[-88.324163,36.607409],[-88.323997,36.60741],[-88.323995,36.607188],[-88.324089,36.607188],[-88.324089,36.607203],[-88.324167,36.607202],[-88.324167,36.60726],[-88.324162,36.60726],[-88.324163,36.607409]]]}},
{"type":"Feature","properties":{"osmId":"way/989795512","buildingId":null,"name":"","height":7,"levels":2,"source":"default"},"geometry":{"type":"Polygon","coordinates":[[[-88.324237,36.607607],[-88.324119,36.607606],[-88.324121,36.607453],[-88.324238,36.607453],[-88.324237,36.607607]]]}},
{"type":"Feature","properties":{"osmId":"way/989795513","buildingId":null,"name":"","height":7,"levels":2,"source":"default"},"geometry":{"type":"Polygon","coordinates":[[[-88.324772,36.607628],[-88.324759,36.607628],[-88.324759,36.607633],[-88.324627,36.607633],[-88.324628,36.607527],[-88.324638,36.607527],[-88.324638,36.607521],[-88.324656,36.607522],[-88.324656,36.607525],[-88.324756,36.607526],[-88.324755,36.607596],[-88.324772,36.607596],[-88.324772,36.607628]]]}}
]}
