{"type":"FeatureCollection",
"note":"Hand-made corrections to the OpenStreetMap data, merged by npm run campus-map. layer: buildings (replaces: the OSM way it supersedes) or paths. Each is a candidate contribution to OpenStreetMap.",
"features":[
  {"type":"Feature","properties":{"layer":"buildings","name":"Engineering and Physics Building","building":"university","replaces":"way/1232965496","source":"override","note":"OpenStreetMap way 1232965496 draws Engineering and Physics (with its rotunda) and the building north of it as one polygon joined through a link; split here at the link (candidate OSM fix: two building ways)."},"geometry":{"type":"Polygon","coordinates":[[[-88.325299,36.612408],[-88.325249,36.612372],[-88.325246,36.612316],[-88.325305,36.612314],[-88.325302,36.612248],[-88.325333,36.612248],[-88.32533,36.612186],[-88.325303,36.612183],[-88.325305,36.611978],[-88.325102,36.611975],[-88.325102,36.612001],[-88.324935,36.611998],[-88.324935,36.611793],[-88.324907,36.611794],[-88.324902,36.611712],[-88.324667,36.611707],[-88.32467,36.611742],[-88.324623,36.611743],[-88.324623,36.611787],[-88.324534,36.611788],[-88.324534,36.612187],[-88.324487,36.612187],[-88.324486,36.612245],[-88.324501,36.612245],[-88.324509,36.612268],[-88.324521,36.612288],[-88.324544,36.612311],[-88.324574,36.612328],[-88.324597,36.612337],[-88.324618,36.612338],[-88.324618,36.612349],[-88.32469,36.612351],[-88.324689,36.612328],[-88.324811,36.612329],[-88.32481,36.612352],[-88.324844,36.612353],[-88.324842,36.612374],[-88.324874,36.612382],[-88.324927,36.612387],[-88.324973,36.612385],[-88.325009,36.612374],[-88.325009,36.612351],[-88.325044,36.612353],[-88.325045,36.612314],[-88.32519,36.612318],[-88.325186,36.612368],[-88.325171,36.612369],[-88.325125,36.612405],[-88.325125,36.612463],[-88.325171,36.612495],[-88.325236,36.612499],[-88.325259,36.612489],[-88.325331,36.612493],[-88.325299,36.612408]]]}},
  {"type":"Feature","properties":{"layer":"buildings","name":"Gene Wells Ray Science Campus","building":"university","replaces":"way/1232965496","source":"override","note":"OpenStreetMap way 1232965496 draws Engineering and Physics (with its rotunda) and the building north of it as one polygon joined through a link; split here at the link (candidate OSM fix: two building ways)."},"geometry":{"type":"Polygon","coordinates":[[[-88.326004,36.613637],[-88.326013,36.613125],[-88.326028,36.613129],[-88.32603,36.613097],[-88.326065,36.613097],[-88.326065,36.613054],[-88.326094,36.613052],[-88.326095,36.612979],[-88.326069,36.612979],[-88.326067,36.612935],[-88.326032,36.612933],[-88.326032,36.612901],[-88.326013,36.612901],[-88.326014,36.612871],[-88.326038,36.612869],[-88.326035,36.61283],[-88.326061,36.61283],[-88.326062,36.612805],[-88.32609,36.612806],[-88.326093,36.612674],[-88.326064,36.612675],[-88.326067,36.61264],[-88.326039,36.612641],[-88.326041,36.61248],[-88.325914,36.612477],[-88.325923,36.612371],[-88.325374,36.612366],[-88.325331,36.612493],[-88.325327,36.61263],[-88.325374,36.612633],[-88.325375,36.612687],[-88.325601,36.612685],[-88.325603,36.61272],[-88.325716,36.612721],[-88.325717,36.612685],[-88.325763,36.612686],[-88.325766,36.612868],[-88.325832,36.612869],[-88.325832,36.612893],[-88.32582,36.612893],[-88.325819,36.612951],[-88.325834,36.612951],[-88.325834,36.612972],[-88.325777,36.612973],[-88.32578,36.613042],[-88.325835,36.613043],[-88.325833,36.613074],[-88.325821,36.613074],[-88.325822,36.613124],[-88.325822,36.613136],[-88.32583,36.613156],[-88.325757,36.613154],[-88.32576,36.613338],[-88.325348,36.613338],[-88.325354,36.613543],[-88.325426,36.613546],[-88.325434,36.613653],[-88.325906,36.613655],[-88.325907,36.613635],[-88.326004,36.613637]]]}},
  {"type":"Feature","properties":{"layer":"paths","kind":"footway","name":"North 16th Street west sidewalk","surface":"paved","source":"override","note":"Paved walkway visible in the USDA NAIP 2022 imagery and missing from OpenStreetMap; candidate contribution to OSM."},"geometry":{"type":"LineString","coordinates":[[-88.324473,36.612719],[-88.324452,36.612293],[-88.324452,36.611713],[-88.324435,36.611212]]}},
  {"type":"Feature","properties":{"layer":"paths","kind":"footway","name":"Engineering and Physics north walk","surface":"paved","source":"override","note":"Paved walkway visible in the USDA NAIP 2022 imagery and missing from OpenStreetMap; candidate contribution to OSM."},"geometry":{"type":"LineString","coordinates":[[-88.325128,36.612447],[-88.32446,36.612447]]}},
  {"type":"Feature","properties":{"layer":"paths","kind":"footway","name":"Engineering and Physics south walk","surface":"paved","source":"override","note":"Paved walkway visible in the USDA NAIP 2022 imagery and missing from OpenStreetMap; candidate contribution to OSM."},"geometry":{"type":"LineString","coordinates":[[-88.3249,36.611713],[-88.324452,36.611713]]}},
  {"type":"Feature","properties":{"layer":"paths","kind":"footway","name":"Industry and Technology east terrace walk","surface":"paved","source":"override","note":"Paved walkway visible in the USDA NAIP 2022 imagery and missing from OpenStreetMap; candidate contribution to OSM."},"geometry":{"type":"LineString","coordinates":[[-88.322241,36.615493],[-88.322116,36.615493],[-88.32186,36.615493]]}},
  {"type":"Feature","properties":{"layer":"paths","kind":"footway","name":"Industry and Technology east terrace, north-south","surface":"paved","source":"override","note":"Paved walkway visible in the USDA NAIP 2022 imagery and missing from OpenStreetMap; candidate contribution to OSM."},"geometry":{"type":"LineString","coordinates":[[-88.322116,36.615858],[-88.322116,36.615493]]}}
]}
