{"type":"FeatureCollection","features":[
{"type":"Feature","properties":{"kind":"building","name":"Cheri Theatres"},"geometry":{"type":"Point","coordinates":[-88.313227,36.618018]}},
{"type":"Feature","properties":{"kind":"building","name":"Dollar General"},"geometry":{"type":"Point","coordinates":[-88.313345,36.618802]}},
{"type":"Feature","properties":{"kind":"building","name":"Harbor Freight Tools"},"geometry":{"type":"Point","coordinates":[-88.313375,36.624052]}},
{"type":"Feature","properties":{"kind":"building","name":"Olympic Plaza"},"geometry":{"type":"Point","coordinates":[-88.31338,36.618772]}},
{"type":"Feature","properties":{"kind":"building","name":"Taco John's"},"geometry":{"type":"Point","coordinates":[-88.313843,36.617496]}},
{"type":"Feature","properties":{"kind":"building","name":"Panera Bread"},"geometry":{"type":"Point","coordinates":[-88.313983,36.621687]}},
{"type":"Feature","properties":{"kind":"building","name":"Cracker Barrel"},"geometry":{"type":"Point","coordinates":[-88.314377,36.620791]}},
{"type":"Feature","properties":{"kind":"building","name":"T-Mobile"},"geometry":{"type":"Point","coordinates":[-88.314467,36.619585]}},
{"type":"Feature","properties":{"kind":"building","name":"KFC"},"geometry":{"type":"Point","coordinates":[-88.314622,36.617424]}},
{"type":"Feature","properties":{"kind":"building","name":"St. Leo Parish Office"},"geometry":{"type":"Point","coordinates":[-88.315422,36.615387]}},
{"type":"Feature","properties":{"kind":"building","name":"Sid Easley Alumni Center","buildingId":"bld-ac"},"geometry":{"type":"Point","coordinates":[-88.31553,36.61942]}},
{"type":"Feature","properties":{"kind":"building","name":"Arby's"},"geometry":{"type":"Point","coordinates":[-88.315536,36.616292]}},
{"type":"Feature","properties":{"kind":"building","name":"Hardee's"},"geometry":{"type":"Point","coordinates":[-88.315687,36.617375]}},
{"type":"Feature","properties":{"kind":"building","name":"Dollar Tree"},"geometry":{"type":"Point","coordinates":[-88.315817,36.610931]}},
{"type":"Feature","properties":{"kind":"building","name":"University Church of Christ"},"geometry":{"type":"Point","coordinates":[-88.315873,36.624941]}},
{"type":"Feature","properties":{"kind":"building","name":"Saint Leo Catholic Church"},"geometry":{"type":"Point","coordinates":[-88.315886,36.615769]}},
{"type":"Feature","properties":{"kind":"building","name":"Walgreens"},"geometry":{"type":"Point","coordinates":[-88.3161,36.609947]}},
{"type":"Feature","properties":{"kind":"building","name":"Newman Catholic Center"},"geometry":{"type":"Point","coordinates":[-88.316341,36.614869]}},
{"type":"Feature","properties":{"kind":"building","name":"Fazoli's"},"geometry":{"type":"Point","coordinates":[-88.316694,36.618002]}},
{"type":"Feature","properties":{"kind":"stadium","name":"Roy Stewart Stadium"},"geometry":{"type":"Point","coordinates":[-88.317434,36.621367]}},
{"type":"Feature","properties":{"kind":"pitch","name":"Reagan Baseball Field"},"geometry":{"type":"Point","coordinates":[-88.317449,36.6231]}},
{"type":"Feature","properties":{"kind":"building","name":"J. H. White College","buildingId":"bld-white"},"geometry":{"type":"Point","coordinates":[-88.31771,36.615409]}},
{"type":"Feature","properties":{"kind":"building","name":"Hogancamp General Services Building","buildingId":"bld-hogancamp"},"geometry":{"type":"Point","coordinates":[-88.318047,36.617231]}},
{"type":"Feature","properties":{"kind":"building","name":"Regents College","buildingId":"bld-re"},"geometry":{"type":"Point","coordinates":[-88.318103,36.615847]}},
{"type":"Feature","properties":{"kind":"building","name":"Facilities Management Complex","buildingId":"bld-facilities"},"geometry":{"type":"Point","coordinates":[-88.318188,36.618352]}},
{"type":"Feature","properties":{"kind":"building","name":"Indoor Golf Training Facility","buildingId":"bld-golf"},"geometry":{"type":"Point","coordinates":[-88.318222,36.62133]}},
{"type":"Feature","properties":{"kind":"recreation_ground","name":"Bennie Purcell Tennis Courts"},"geometry":{"type":"Point","coordinates":[-88.319269,36.616419]}},
{"type":"Feature","properties":{"kind":"building","name":"Mason Hall","buildingId":"bld-mh"},"geometry":{"type":"Point","coordinates":[-88.319533,36.614738]}},
{"type":"Feature","properties":{"kind":"building","name":"CFSB Center","buildingId":"bld-cfsb"},"geometry":{"type":"Point","coordinates":[-88.319885,36.622748]}},
{"type":"Feature","properties":{"kind":"building","name":"University Club","buildingId":"bld-univ-club"},"geometry":{"type":"Point","coordinates":[-88.32021,36.613685]}},
{"type":"Feature","properties":{"kind":"pitch","name":"Cutchin Field"},"geometry":{"type":"Point","coordinates":[-88.320251,36.615681]}},
{"type":"Feature","properties":{"kind":"building","name":"Susan E. Bauernfeind Student Recreation and Wellness Center","buildingId":"bld-wellness"},"geometry":{"type":"Point","coordinates":[-88.320399,36.62089]}},
{"type":"Feature","properties":{"kind":"building","name":"Hampton Inn & Suites"},"geometry":{"type":"Point","coordinates":[-88.320471,36.62503]}},
{"type":"Feature","properties":{"kind":"park","name":"Woods Park"},"geometry":{"type":"Point","coordinates":[-88.320537,36.612959]}},
{"type":"Feature","properties":{"kind":"building","name":"AT&T"},"geometry":{"type":"Point","coordinates":[-88.320555,36.624439]}},
{"type":"Feature","properties":{"kind":"building","name":"Simpson Child Development Center","buildingId":"bld-sm"},"geometry":{"type":"Point","coordinates":[-88.320561,36.613833]}},
{"type":"Feature","properties":{"kind":"building","name":"Cutchin Fieldhouse","buildingId":"bld-racer-arena"},"geometry":{"type":"Point","coordinates":[-88.320565,36.614547]}},
{"type":"Feature","properties":{"kind":"building","name":"Hollis Franklin College","buildingId":"bld-fr"},"geometry":{"type":"Point","coordinates":[-88.320665,36.617319]}},
{"type":"Feature","properties":{"kind":"building","name":"Hart College","buildingId":"bld-ht"},"geometry":{"type":"Point","coordinates":[-88.320751,36.618266]}},
{"type":"Feature","properties":{"kind":"building","name":"Carr Health Building","buildingId":"bld-ch"},"geometry":{"type":"Point","coordinates":[-88.321176,36.614428]}},
{"type":"Feature","properties":{"kind":"building","name":"College Courts 1200","buildingId":"bld-cc1200"},"geometry":{"type":"Point","coordinates":[-88.321181,36.620526]}},
{"type":"Feature","properties":{"kind":"building","name":"Curris Center","buildingId":"bld-cc"},"geometry":{"type":"Point","coordinates":[-88.321189,36.615528]}},
{"type":"Feature","properties":{"kind":"building","name":"Harry Lee Waterfield Library","buildingId":"bld-wl"},"geometry":{"type":"Point","coordinates":[-88.321423,36.613525]}},
{"type":"Feature","properties":{"kind":"building","name":"Hester College","buildingId":"bld-he"},"geometry":{"type":"Point","coordinates":[-88.321707,36.619538]}},
{"type":"Feature","properties":{"kind":"building","name":"Winslow Dining Hall","buildingId":"bld-winslow"},"geometry":{"type":"Point","coordinates":[-88.3218,36.618282]}},
{"type":"Feature","properties":{"kind":"building","name":"Elizabeth College","buildingId":"bld-el"},"geometry":{"type":"Point","coordinates":[-88.321808,36.617162]}},
{"type":"Feature","properties":{"kind":"building","name":"Price Doyle Fine Arts Center","buildingId":"bld-fa"},"geometry":{"type":"Point","coordinates":[-88.322175,36.61299]}},
{"type":"Feature","properties":{"kind":"building","name":"Pogue Special Collections Library","buildingId":"bld-pl"},"geometry":{"type":"Point","coordinates":[-88.322176,36.611977]}},
{"type":"Feature","properties":{"kind":"building","name":"Lowry Center","buildingId":"bld-lc"},"geometry":{"type":"Point","coordinates":[-88.322187,36.611569]}},
{"type":"Feature","properties":{"kind":"building","name":"Oakley Applied Science Building","buildingId":"bld-as"},"geometry":{"type":"Point","coordinates":[-88.322296,36.614097]}},
{"type":"Feature","properties":{"kind":"park","name":"Zen Garden"},"geometry":{"type":"Point","coordinates":[-88.322349,36.613209]}},
{"type":"Feature","properties":{"kind":"building","name":"JH Richmond Hall","buildingId":"bld-rx"},"geometry":{"type":"Point","coordinates":[-88.322411,36.619652]}},
{"type":"Feature","properties":{"kind":"building","name":"Blackburn Science Building","buildingId":"bld-bl"},"geometry":{"type":"Point","coordinates":[-88.322414,36.614865]}},
{"type":"Feature","properties":{"kind":"building","name":"Lee Clark College","buildingId":"bld-ck"},"geometry":{"type":"Point","coordinates":[-88.322415,36.618324]}},
{"type":"Feature","properties":{"kind":"building","name":"Old Fine Arts","buildingId":"bld-old-fa"},"geometry":{"type":"Point","coordinates":[-88.322443,36.613426]}},
{"type":"Feature","properties":{"kind":"building","name":"Sparks Hall","buildingId":"bld-sh"},"geometry":{"type":"Point","coordinates":[-88.32249,36.610107]}},
{"type":"Feature","properties":{"kind":"building","name":"Wilson Hall","buildingId":"bld-wi"},"geometry":{"type":"Point","coordinates":[-88.322601,36.61107]}},
{"type":"Feature","properties":{"kind":"building","name":"Lovett Auditorium","buildingId":"bld-la"},"geometry":{"type":"Point","coordinates":[-88.322656,36.613035]}},
{"type":"Feature","properties":{"kind":"building","name":"Collins Industry and Technology Center","buildingId":"bld-it"},"geometry":{"type":"Point","coordinates":[-88.322667,36.61575]}},
{"type":"Feature","properties":{"kind":"building","name":"Visual Arts Building","buildingId":"bld-va"},"geometry":{"type":"Point","coordinates":[-88.322734,36.614097]}},
{"type":"Feature","properties":{"kind":"building","name":"Oakhurst","buildingId":"bld-oakhurst"},"geometry":{"type":"Point","coordinates":[-88.323045,36.610126]}},
{"type":"Feature","properties":{"kind":"building","name":"Sorority Suites","buildingId":"bld-sorority"},"geometry":{"type":"Point","coordinates":[-88.323299,36.608002]}},
{"type":"Feature","properties":{"kind":"building","name":"Central Heating and Cooling Plant","buildingId":"bld-central-plant"},"geometry":{"type":"Point","coordinates":[-88.323359,36.615026]}},
{"type":"Feature","properties":{"kind":"building","name":"Faculty Hall","buildingId":"bld-fh"},"geometry":{"type":"Point","coordinates":[-88.323398,36.613004]}},
{"type":"Feature","properties":{"kind":"building","name":"Business Building","buildingId":"bld-bauernfeind"},"geometry":{"type":"Point","coordinates":[-88.323557,36.611707]}},
{"type":"Feature","properties":{"kind":"building","name":"Wells Hall","buildingId":"bld-we"},"geometry":{"type":"Point","coordinates":[-88.323579,36.612392]}},
{"type":"Feature","properties":{"kind":"building","name":"Sorority Suites","buildingId":"bld-sorority"},"geometry":{"type":"Point","coordinates":[-88.323592,36.608]}},
{"type":"Feature","properties":{"kind":"park","name":"Murray State Intramural Fields"},"geometry":{"type":"Point","coordinates":[-88.323632,36.618405]}},
{"type":"Feature","properties":{"kind":"building","name":"Wrather West Kentucky Museum","buildingId":"bld-wr"},"geometry":{"type":"Point","coordinates":[-88.323634,36.61109]}},
{"type":"Feature","properties":{"kind":"parking","name":"Murray State University Parking"},"geometry":{"type":"Point","coordinates":[-88.323648,36.614245]}},
{"type":"Feature","properties":{"kind":"building","name":"Heritage Hall","buildingId":"bld-heritage"},"geometry":{"type":"Point","coordinates":[-88.323815,36.622318]}},
{"type":"Feature","properties":{"kind":"building","name":"Murray State Police Department","buildingId":"bld-police"},"geometry":{"type":"Point","coordinates":[-88.32388,36.616369]}},
{"type":"Feature","properties":{"kind":"building","name":"E. B. Howton Agricultural Engineering Building","buildingId":"bld-ha"},"geometry":{"type":"Point","coordinates":[-88.323977,36.615198]}},
{"type":"Feature","properties":{"kind":"building","name":"Nash House","buildingId":"bld-nash"},"geometry":{"type":"Point","coordinates":[-88.324684,36.611564]}},
{"type":"Feature","properties":{"kind":"building","name":"Alexander Hall","buildingId":"bld-al"},"geometry":{"type":"Point","coordinates":[-88.32482,36.614001]}},
{"type":"Feature","properties":{"kind":"building","name":"Engineering and Physics Building","buildingId":"bld-ep"},"geometry":{"type":"Point","coordinates":[-88.324888,36.612104]}},
{"type":"Feature","properties":{"kind":"building","name":"Gene Wells Ray Science Campus","buildingId":"bld-bg"},"geometry":{"type":"Point","coordinates":[-88.325826,36.613462]}},
{"type":"Feature","properties":{"kind":"parking","name":"Murray State University Parking"},"geometry":{"type":"Point","coordinates":[-88.326325,36.614429]}},
{"type":"Feature","properties":{"kind":"park","name":"Doran Arboretrum"},"geometry":{"type":"Point","coordinates":[-88.33057,36.604846]}},
{"type":"Feature","properties":{"kind":"building","name":"William Bill Cherry Agricultural Exposition Center","buildingId":"bld-cherry-expo"},"geometry":{"type":"Point","coordinates":[-88.338919,36.616716]}},
{"type":"Feature","properties":{"kind":"building","name":"Calloway County Preschool"},"geometry":{"type":"Point","coordinates":[-88.339668,36.619637]}},
{"type":"Feature","properties":{"kind":"building","name":"A. Carman Animal Health Technology Center","buildingId":"bld-cp"},"geometry":{"type":"Point","coordinates":[-88.340321,36.616885]}},
{"type":"Feature","properties":{"kind":"building","name":"Calloway County High School"},"geometry":{"type":"Point","coordinates":[-88.341233,36.618406]}},
{"type":"Feature","properties":{"kind":"building","name":"Calloway County Middle School"},"geometry":{"type":"Point","coordinates":[-88.3427,36.619585]}}
]}
