{"type":"FeatureCollection","features":[
{"type":"Feature","properties":{"osmId":"way/1246817755","kind":"pitch","sport":"baseball"},"geometry":{"type":"Polygon","coordinates":[[[-88.339692,36.623834],[-88.339696,36.622898],[-88.340267,36.622923],[-88.340673,36.623074],[-88.340871,36.623409],[-88.340909,36.623852],[-88.339751,36.623874],[-88.339692,36.623834]]]}},
{"type":"Feature","properties":{"osmId":"way/1246817756","kind":"pitch","sport":"baseball"},"geometry":{"type":"Polygon","coordinates":[[[-88.34005,36.622586],[-88.339954,36.622512],[-88.339977,36.621955],[-88.340317,36.621988],[-88.340588,36.622106],[-88.340699,36.622305],[-88.340699,36.622604],[-88.34005,36.622586]]]}},
{"type":"Feature","properties":{"osmId":"way/1246817757","kind":"pitch"},"geometry":{"type":"Polygon","coordinates":[[[-88.338639,36.620071],[-88.337878,36.620042],[-88.337838,36.620973],[-88.338584,36.621],[-88.338639,36.620071]]]}},
{"type":"Feature","properties":{"osmId":"way/1246817758","kind":"pitch"},"geometry":{"type":"Polygon","coordinates":[[[-88.339589,36.620983],[-88.338802,36.620967],[-88.338833,36.62003],[-88.339619,36.620046],[-88.339589,36.620983]]]}},
{"type":"Feature","properties":{"osmId":"way/1255043507","kind":"recreation_ground","sport":"tennis","name":"Bennie Purcell Tennis Courts"},"geometry":{"type":"Polygon","coordinates":[[[-88.319645,36.616741],[-88.319623,36.616082],[-88.318893,36.616098],[-88.318916,36.616757],[-88.319645,36.616741]]]}},
{"type":"Feature","properties":{"osmId":"way/1255043508","kind":"pitch","sport":"tennis"},"geometry":{"type":"Polygon","coordinates":[[[-88.319579,36.616676],[-88.319565,36.616463],[-88.319443,36.616466],[-88.319454,36.616679],[-88.319579,36.616676]]]}},
{"type":"Feature","properties":{"osmId":"way/1255043509","kind":"pitch","sport":"tennis"},"geometry":{"type":"Polygon","coordinates":[[[-88.319415,36.616681],[-88.319405,36.616468],[-88.319281,36.616471],[-88.319294,36.616685],[-88.319415,36.616681]]]}},
{"type":"Feature","properties":{"osmId":"way/1255043510","kind":"pitch","sport":"tennis"},"geometry":{"type":"Polygon","coordinates":[[[-88.319251,36.616686],[-88.319242,36.61647],[-88.319116,36.616476],[-88.319128,36.61669],[-88.319251,36.616686]]]}},
{"type":"Feature","properties":{"osmId":"way/1255043511","kind":"pitch","sport":"tennis"},"geometry":{"type":"Polygon","coordinates":[[[-88.319086,36.616691],[-88.319077,36.616476],[-88.318951,36.616481],[-88.318963,36.616695],[-88.319086,36.616691]]]}},
{"type":"Feature","properties":{"osmId":"way/1255043512","kind":"pitch","sport":"tennis"},"geometry":{"type":"Polygon","coordinates":[[[-88.31956,36.616347],[-88.319551,36.616132],[-88.319425,36.616138],[-88.319437,36.616351],[-88.31956,36.616347]]]}},
{"type":"Feature","properties":{"osmId":"way/1255043513","kind":"pitch","sport":"tennis"},"geometry":{"type":"Polygon","coordinates":[[[-88.319399,36.616352],[-88.319389,36.616137],[-88.319263,36.616142],[-88.319276,36.616356],[-88.319399,36.616352]]]}},
{"type":"Feature","properties":{"osmId":"way/1255043514","kind":"pitch","sport":"tennis"},"geometry":{"type":"Polygon","coordinates":[[[-88.319235,36.616356],[-88.319226,36.616141],[-88.3191,36.616147],[-88.319112,36.61636],[-88.319235,36.616356]]]}},
{"type":"Feature","properties":{"osmId":"way/1255043515","kind":"pitch","sport":"tennis"},"geometry":{"type":"Polygon","coordinates":[[[-88.319074,36.616361],[-88.319064,36.616146],[-88.318938,36.616151],[-88.318948,36.616365],[-88.319074,36.616361]]]}},
{"type":"Feature","properties":{"osmId":"way/1299114771","kind":"pitch","sport":"tennis"},"geometry":{"type":"Polygon","coordinates":[[[-88.324159,36.619507],[-88.324041,36.619505],[-88.324047,36.619274],[-88.324165,36.619276],[-88.324159,36.619507]]]}},
{"type":"Feature","properties":{"osmId":"way/1299114772","kind":"pitch","sport":"tennis"},"geometry":{"type":"Polygon","coordinates":[[[-88.323976,36.619505],[-88.323858,36.619504],[-88.323863,36.619272],[-88.323981,36.619274],[-88.323976,36.619505]]]}},
{"type":"Feature","properties":{"osmId":"way/1299114773","kind":"pitch","sport":"tennis"},"geometry":{"type":"Polygon","coordinates":[[[-88.323794,36.619502],[-88.323676,36.6195],[-88.323681,36.619269],[-88.323799,36.619271],[-88.323794,36.619502]]]}},
{"type":"Feature","properties":{"osmId":"way/1299114774","kind":"pitch","sport":"tennis"},"geometry":{"type":"Polygon","coordinates":[[[-88.323558,36.619499],[-88.32344,36.619497],[-88.323445,36.619266],[-88.323563,36.619268],[-88.323558,36.619499]]]}},
{"type":"Feature","properties":{"osmId":"way/1299114775","kind":"pitch","sport":"tennis"},"geometry":{"type":"Polygon","coordinates":[[[-88.323384,36.619493],[-88.323266,36.619491],[-88.323271,36.61926],[-88.323389,36.619262],[-88.323384,36.619493]]]}},
{"type":"Feature","properties":{"osmId":"way/1299114776","kind":"pitch","sport":"tennis"},"geometry":{"type":"Polygon","coordinates":[[[-88.323206,36.619493],[-88.323088,36.619491],[-88.323093,36.61926],[-88.323211,36.619262],[-88.323206,36.619493]]]}},
{"type":"Feature","properties":{"osmId":"way/1356672824","kind":"pitch","sport":"american_football"},"geometry":{"type":"Polygon","coordinates":[[[-88.341399,36.620741],[-88.341404,36.6197],[-88.340835,36.619698],[-88.340829,36.620739],[-88.341399,36.620741]]]}},
{"type":"Feature","properties":{"osmId":"way/1454532436","kind":"wood"},"geometry":{"type":"Polygon","coordinates":[[[-88.342835,36.625034],[-88.342491,36.624935],[-88.342271,36.623687],[-88.341939,36.623588],[-88.341853,36.623463],[-88.341681,36.623308],[-88.34166,36.623062],[-88.341762,36.622877],[-88.341912,36.622163],[-88.342502,36.622055],[-88.34263,36.621542],[-88.342725,36.621255],[-88.342768,36.621536],[-88.342765,36.624139],[-88.342878,36.624289],[-88.342835,36.625034]]]}},
{"type":"Feature","properties":{"osmId":"way/249901669","kind":"stadium","sport":"american_football","name":"Roy Stewart Stadium"},"geometry":{"type":"Polygon","coordinates":[[[-88.318219,36.622041],[-88.318049,36.62226],[-88.317724,36.622459],[-88.317359,36.622501],[-88.317118,36.62249],[-88.316766,36.62237],[-88.316538,36.622135],[-88.316408,36.621847],[-88.316395,36.621539],[-88.316395,36.621105],[-88.31644,36.620896],[-88.316564,36.620593],[-88.316773,36.620389],[-88.317079,36.620253],[-88.317333,36.620232],[-88.317554,36.620237],[-88.317854,36.620347],[-88.318095,36.620535],[-88.318232,36.620734],[-88.318468,36.62065],[-88.318562,36.621051],[-88.318565,36.621465],[-88.318451,36.621982],[-88.318249,36.621939],[-88.318219,36.622041]]]}},
{"type":"Feature","properties":{"osmId":"way/249922482","kind":"pitch","sport":"baseball","name":"Reagan Baseball Field"},"geometry":{"type":"Polygon","coordinates":[[[-88.318102,36.623587],[-88.317822,36.62367],[-88.317509,36.623712],[-88.317079,36.623634],[-88.316864,36.623435],[-88.316728,36.623142],[-88.316747,36.622918],[-88.316793,36.622803],[-88.316767,36.622567],[-88.317946,36.622557],[-88.318089,36.622646],[-88.318102,36.623587]]]}},
{"type":"Feature","properties":{"osmId":"way/310537736","kind":"park","name":"Murray State Intramural Fields"},"geometry":{"type":"Polygon","coordinates":[[[-88.324354,36.61909],[-88.32437,36.617756],[-88.322916,36.61771],[-88.322895,36.619062],[-88.324354,36.61909]]]}},
{"type":"Feature","properties":{"osmId":"way/350561790","kind":"track"},"geometry":{"type":"Polygon","coordinates":[[[-88.341108,36.619421],[-88.340996,36.619444],[-88.340872,36.619508],[-88.340767,36.619611],[-88.340718,36.61971],[-88.340712,36.620464],[-88.34071,36.620703],[-88.340735,36.620787],[-88.34081,36.620873],[-88.340918,36.620933],[-88.341088,36.620967],[-88.341266,36.620946],[-88.341366,36.620889],[-88.341472,36.620807],[-88.34151,36.620737],[-88.341533,36.619744],[-88.341503,36.619628],[-88.341434,36.619546],[-88.341349,36.619475],[-88.341233,36.619431],[-88.341108,36.619421]]]}},
{"type":"Feature","properties":{"osmId":"way/386423127","kind":"pitch","sport":"soccer","name":"Cutchin Field"},"geometry":{"type":"Polygon","coordinates":[[[-88.320602,36.615222],[-88.319885,36.61523],[-88.319901,36.61614],[-88.320618,36.616131],[-88.320602,36.615222]]]}},
{"type":"Feature","properties":{"osmId":"way/386423128","kind":"pitch","sport":"volleyball"},"geometry":{"type":"Polygon","coordinates":[[[-88.317825,36.616222],[-88.317669,36.616258],[-88.317753,36.616431],[-88.317884,36.6164],[-88.317825,36.616222]]]}},
{"type":"Feature","properties":{"osmId":"way/386423129","kind":"pitch","sport":"american_football"},"geometry":{"type":"Polygon","coordinates":[[[-88.31765,36.620848],[-88.317086,36.620841],[-88.317066,36.621839],[-88.317629,36.621847],[-88.31765,36.620848]]]}},
{"type":"Feature","properties":{"osmId":"way/463698082","kind":"park","name":"Doran Arboretrum"},"geometry":{"type":"Polygon","coordinates":[[[-88.332195,36.603803],[-88.332158,36.603111],[-88.329282,36.603136],[-88.32904,36.603138],[-88.32905,36.603699],[-88.329049,36.603824],[-88.329043,36.604072],[-88.329038,36.604139],[-88.329041,36.604599],[-88.329097,36.606611],[-88.329251,36.606611],[-88.330267,36.606616],[-88.332011,36.60662],[-88.332045,36.604494],[-88.332195,36.603803]]]}},
{"type":"Feature","properties":{"osmId":"way/544484234","kind":"park","name":"Zen Garden"},"geometry":{"type":"Polygon","coordinates":[[[-88.322407,36.613169],[-88.322414,36.613246],[-88.322289,36.613248],[-88.322287,36.61317],[-88.322407,36.613169]]]}},
{"type":"Feature","properties":{"osmId":"way/639897691","kind":"pitch","sport":"softball"},"geometry":{"type":"Polygon","coordinates":[[[-88.319595,36.621226],[-88.319648,36.621167],[-88.319616,36.62057],[-88.319453,36.620576],[-88.319248,36.620596],[-88.319021,36.620715],[-88.318894,36.620886],[-88.318858,36.621082],[-88.318887,36.621246],[-88.319595,36.621226]]]}},
{"type":"Feature","properties":{"osmId":"way/733773631","kind":"park","name":"Woods Park"},"geometry":{"type":"Polygon","coordinates":[[[-88.320008,36.612557],[-88.320027,36.613437],[-88.320343,36.613434],[-88.320401,36.613351],[-88.321067,36.613325],[-88.32107,36.61319],[-88.321105,36.612546],[-88.320008,36.612557]]]}}
]}
