{"type":"FeatureCollection","features":[
{"type":"Feature","properties":{"osmId":"way/1106451991","kind":"parking"},"geometry":{"type":"Polygon","coordinates":[[[-88.315638,36.615293],[-88.315632,36.61556],[-88.316007,36.615548],[-88.316171,36.615646],[-88.316466,36.615641],[-88.316469,36.61571],[-88.316554,36.615707],[-88.316549,36.615233],[-88.315696,36.615258],[-88.315699,36.615293],[-88.315638,36.615293]]]}},
{"type":"Feature","properties":{"osmId":"way/1106452000","kind":"parking"},"geometry":{"type":"Polygon","coordinates":[[[-88.315866,36.616043],[-88.315382,36.616026],[-88.315391,36.615854],[-88.315875,36.61587],[-88.315866,36.616043]]]}},
{"type":"Feature","properties":{"osmId":"way/1299543577","kind":"parking"},"geometry":{"type":"Polygon","coordinates":[[[-88.312587,36.62175],[-88.312576,36.62159],[-88.313378,36.621597],[-88.313435,36.61919],[-88.313732,36.619197],[-88.313688,36.619428],[-88.313692,36.619602],[-88.313703,36.619739],[-88.314017,36.619743],[-88.314014,36.619805],[-88.314011,36.619967],[-88.314011,36.620145],[-88.314011,36.62033],[-88.314006,36.620503],[-88.314003,36.62067],[-88.314003,36.620842],[-88.313995,36.621015],[-88.313995,36.62118],[-88.31399,36.621353],[-88.314042,36.621354],[-88.31403,36.621526],[-88.313628,36.62152],[-88.313622,36.621682],[-88.31362,36.62176],[-88.312587,36.62175]]]}},
{"type":"Feature","properties":{"osmId":"way/1299543578","kind":"parking"},"geometry":{"type":"Polygon","coordinates":[[[-88.314247,36.619427],[-88.314245,36.619724],[-88.314636,36.61973],[-88.314642,36.619427],[-88.314277,36.619425],[-88.314274,36.61919],[-88.314778,36.619207],[-88.314762,36.619847],[-88.314103,36.619838],[-88.314127,36.619386],[-88.314215,36.619392],[-88.314212,36.619431],[-88.314247,36.619427]]]}},
{"type":"Feature","properties":{"osmId":"way/1299543579","kind":"parking"},"geometry":{"type":"Polygon","coordinates":[[[-88.314108,36.621771],[-88.314116,36.621435],[-88.314469,36.621448],[-88.314472,36.621397],[-88.314591,36.621401],[-88.314567,36.621784],[-88.314108,36.621771]]]}},
{"type":"Feature","properties":{"osmId":"way/1299543580","kind":"parking"},"geometry":{"type":"Polygon","coordinates":[[[-88.31357,36.622249],[-88.313988,36.622256],[-88.313979,36.62258],[-88.314618,36.622595],[-88.314611,36.622672],[-88.313977,36.62266],[-88.313978,36.622927],[-88.314528,36.622938],[-88.314522,36.623019],[-88.314019,36.623006],[-88.314016,36.62329],[-88.314519,36.623298],[-88.314448,36.624005],[-88.314351,36.624003],[-88.314335,36.62426],[-88.31391,36.624255],[-88.313855,36.624162],[-88.31388,36.623685],[-88.313556,36.623677],[-88.313494,36.623632],[-88.313511,36.622957],[-88.313555,36.62274],[-88.31357,36.622249]]]}},
{"type":"Feature","properties":{"osmId":"way/1299543581","kind":"parking"},"geometry":{"type":"Polygon","coordinates":[[[-88.313881,36.625499],[-88.313845,36.625637],[-88.313362,36.625558],[-88.313127,36.625519],[-88.313445,36.624582],[-88.314352,36.624741],[-88.314312,36.624931],[-88.314298,36.625076],[-88.314001,36.625029],[-88.31396,36.62519],[-88.313923,36.625335],[-88.313881,36.625499]]]}},
{"type":"Feature","properties":{"osmId":"way/1299543582","kind":"parking"},"geometry":{"type":"Polygon","coordinates":[[[-88.314204,36.62566],[-88.314351,36.625674],[-88.314486,36.6248],[-88.314352,36.624741],[-88.314298,36.625076],[-88.314204,36.62566]]]}},
{"type":"Feature","properties":{"osmId":"way/1299543591","kind":"parking"},"geometry":{"type":"Polygon","coordinates":[[[-88.313156,36.618964],[-88.313166,36.619087],[-88.314833,36.619039],[-88.314856,36.618431],[-88.313588,36.61848],[-88.313602,36.618946],[-88.313156,36.618964]]]}},
{"type":"Feature","properties":{"osmId":"way/1299543593","kind":"parking"},"geometry":{"type":"Polygon","coordinates":[[[-88.311986,36.618267],[-88.312827,36.618245],[-88.31279,36.617742],[-88.313026,36.617734],[-88.313012,36.617671],[-88.313598,36.617641],[-88.313635,36.618256],[-88.313681,36.61826],[-88.313616,36.617168],[-88.31331,36.617168],[-88.313277,36.617253],[-88.313226,36.617302],[-88.31317,36.617261],[-88.313166,36.61719],[-88.313017,36.617186],[-88.313017,36.617224],[-88.312887,36.61722],[-88.31291,36.617634],[-88.312641,36.617641],[-88.31265,36.617805],[-88.311968,36.617831],[-88.311986,36.618267]]]}},
{"type":"Feature","properties":{"osmId":"way/1299543595","kind":"parking"},"geometry":{"type":"Polygon","coordinates":[[[-88.315293,36.614547],[-88.315604,36.61454],[-88.315603,36.614303],[-88.315537,36.614303],[-88.315537,36.614146],[-88.315606,36.614145],[-88.315605,36.614029],[-88.315552,36.614031],[-88.315524,36.613748],[-88.315803,36.613741],[-88.315813,36.613567],[-88.315307,36.613578],[-88.315293,36.614547]]]}},
{"type":"Feature","properties":{"osmId":"way/1299543596","kind":"parking"},"geometry":{"type":"Polygon","coordinates":[[[-88.315845,36.61454],[-88.315943,36.61454],[-88.315924,36.61489],[-88.315818,36.614946],[-88.315414,36.614953],[-88.315288,36.614819],[-88.315293,36.614659],[-88.315526,36.614605],[-88.315511,36.61469],[-88.315488,36.614748],[-88.315516,36.614838],[-88.3157,36.61484],[-88.315836,36.614842],[-88.315845,36.61454]]]}},
{"type":"Feature","properties":{"osmId":"way/1299543597","kind":"parking"},"geometry":{"type":"Polygon","coordinates":[[[-88.314369,36.613548],[-88.314489,36.613544],[-88.314499,36.613324],[-88.31481,36.613332],[-88.31481,36.613809],[-88.314559,36.613809],[-88.314559,36.613902],[-88.314833,36.613906],[-88.315014,36.613775],[-88.315014,36.613403],[-88.314954,36.613403],[-88.314996,36.613298],[-88.315,36.613231],[-88.31435,36.613209],[-88.314369,36.613548]]]}},
{"type":"Feature","properties":{"osmId":"way/1299543598","kind":"parking"},"geometry":{"type":"Polygon","coordinates":[[[-88.315479,36.610316],[-88.316277,36.610312],[-88.316289,36.610128],[-88.31579,36.610126],[-88.31578,36.609951],[-88.315349,36.609939],[-88.315358,36.610234],[-88.315479,36.610241],[-88.315479,36.610316]]]}},
{"type":"Feature","properties":{"osmId":"way/1299543599","kind":"parking"},"geometry":{"type":"Polygon","coordinates":[[[-88.316366,36.609526],[-88.315446,36.609541],[-88.315451,36.609485],[-88.315376,36.609477],[-88.315367,36.609213],[-88.315502,36.609213],[-88.315502,36.609131],[-88.315584,36.609133],[-88.315576,36.609358],[-88.31585,36.609365],[-88.315855,36.609209],[-88.315975,36.609205],[-88.315975,36.609362],[-88.31637,36.609362],[-88.316366,36.609526]]]}},
{"type":"Feature","properties":{"osmId":"way/1299543600","kind":"parking"},"geometry":{"type":"Polygon","coordinates":[[[-88.316403,36.608855],[-88.316156,36.608856],[-88.316152,36.608969],[-88.316105,36.608965],[-88.316102,36.608945],[-88.316029,36.608943],[-88.316031,36.608963],[-88.315926,36.608961],[-88.315926,36.60866],[-88.315573,36.608666],[-88.315575,36.608926],[-88.31537,36.608926],[-88.315363,36.608687],[-88.315428,36.608687],[-88.315535,36.608565],[-88.315861,36.608567],[-88.315857,36.608619],[-88.315984,36.608606],[-88.316125,36.60861],[-88.316123,36.608562],[-88.316399,36.608554],[-88.316403,36.608855]]]}},
{"type":"Feature","properties":{"osmId":"way/1454532437","kind":"parking"},"geometry":{"type":"Polygon","coordinates":[[[-88.342167,36.624813],[-88.342345,36.624377],[-88.342283,36.624356],[-88.342305,36.624302],[-88.341613,36.624124],[-88.341504,36.624388],[-88.341439,36.624371],[-88.341382,36.624539],[-88.341543,36.624592],[-88.341523,36.624642],[-88.342167,36.624813]]]}},
{"type":"Feature","properties":{"osmId":"way/1465196784","kind":"parking"},"geometry":{"type":"Polygon","coordinates":[[[-88.321181,36.616288],[-88.321075,36.616225],[-88.320957,36.61627],[-88.32085,36.616256],[-88.320837,36.616105],[-88.320723,36.616105],[-88.320716,36.616213],[-88.319747,36.616244],[-88.319784,36.61683],[-88.320809,36.616765],[-88.320927,36.616718],[-88.32092,36.61648],[-88.321181,36.616288]]]}},
{"type":"Feature","properties":{"osmId":"way/1479093945","kind":"parking"},"geometry":{"type":"Polygon","coordinates":[[[-88.340149,36.621568],[-88.339736,36.621533],[-88.339752,36.620525],[-88.340149,36.620513],[-88.340149,36.621568]]]}},
{"type":"Feature","properties":{"osmId":"way/1479093946","kind":"parking"},"geometry":{"type":"Polygon","coordinates":[[[-88.340267,36.621793],[-88.3403,36.621572],[-88.339736,36.621533],[-88.339576,36.621745],[-88.340267,36.621793]]]}},
{"type":"Feature","properties":{"osmId":"way/249901670","kind":"parking"},"geometry":{"type":"Polygon","coordinates":[[[-88.31633,36.623273],[-88.315927,36.623022],[-88.315633,36.62275],[-88.315419,36.622458],[-88.315366,36.622322],[-88.315581,36.622259],[-88.315464,36.621977],[-88.315412,36.621579],[-88.315386,36.621297],[-88.31551,36.620617],[-88.315614,36.620361],[-88.315445,36.620288],[-88.315562,36.620048],[-88.315731,36.619849],[-88.315979,36.619671],[-88.316194,36.619514],[-88.316552,36.619347],[-88.316982,36.620184],[-88.316793,36.620272],[-88.3165,36.620544],[-88.316356,36.620889],[-88.316285,36.621307],[-88.316311,36.621632],[-88.316396,36.621935],[-88.316487,36.622175],[-88.316591,36.622332],[-88.316623,36.622505],[-88.316389,36.623287],[-88.31633,36.623273]]]}},
{"type":"Feature","properties":{"osmId":"way/249922483","kind":"parking"},"geometry":{"type":"Polygon","coordinates":[[[-88.3196,36.621998],[-88.31904,36.622003],[-88.318994,36.621318],[-88.319581,36.621302],[-88.3196,36.621998]]]}},
{"type":"Feature","properties":{"osmId":"way/249922484","kind":"parking"},"geometry":{"type":"Polygon","coordinates":[[[-88.320701,36.623331],[-88.320577,36.623221],[-88.320727,36.62308],[-88.320838,36.623064],[-88.32087,36.622698],[-88.320779,36.622693],[-88.320799,36.622327],[-88.320492,36.622086],[-88.319802,36.622071],[-88.319789,36.621428],[-88.319893,36.621344],[-88.320063,36.621381],[-88.320395,36.621506],[-88.320649,36.621658],[-88.320922,36.621888],[-88.321131,36.622118],[-88.32132,36.622405],[-88.321456,36.622771],[-88.321483,36.62285],[-88.321202,36.622865],[-88.321202,36.62321],[-88.320701,36.623331]]]}},
{"type":"Feature","properties":{"osmId":"way/249922485","kind":"parking"},"geometry":{"type":"Polygon","coordinates":[[[-88.319229,36.622923],[-88.318482,36.62291],[-88.318456,36.622149],[-88.319203,36.62216],[-88.319209,36.622355],[-88.319211,36.622403],[-88.319229,36.622923]]]}},
{"type":"Feature","properties":{"osmId":"way/249922486","kind":"parking"},"geometry":{"type":"Polygon","coordinates":[[[-88.319399,36.623313],[-88.319374,36.623398],[-88.319317,36.623472],[-88.319232,36.623526],[-88.319129,36.623555],[-88.31902,36.623556],[-88.31892,36.623529],[-88.318836,36.623477],[-88.318777,36.623407],[-88.318749,36.623326],[-88.318755,36.623241],[-88.318793,36.623163],[-88.318862,36.623098],[-88.318952,36.623054],[-88.319058,36.623036],[-88.319166,36.623046],[-88.319264,36.623085],[-88.31934,36.623147],[-88.319387,36.623226],[-88.319399,36.623313]]]}},
{"type":"Feature","properties":{"osmId":"way/474519085","kind":"parking","name":"Murray State University Parking"},"geometry":{"type":"Polygon","coordinates":[[[-88.324293,36.615072],[-88.323701,36.615078],[-88.323701,36.614911],[-88.323102,36.614887],[-88.323133,36.615134],[-88.322994,36.615097],[-88.323017,36.614566],[-88.322571,36.614547],[-88.322587,36.614399],[-88.32301,36.614405],[-88.322994,36.613523],[-88.323824,36.613504],[-88.324009,36.613393],[-88.324316,36.613406],[-88.324293,36.615072]]]}},
{"type":"Feature","properties":{"osmId":"way/474519329","kind":"parking","name":"Murray State University Parking"},"geometry":{"type":"Polygon","coordinates":[[[-88.324586,36.614677],[-88.324575,36.61487],[-88.325165,36.614868],[-88.325147,36.61538],[-88.324755,36.615417],[-88.324522,36.615803],[-88.326351,36.615891],[-88.326385,36.61543],[-88.326984,36.61543],[-88.327038,36.614578],[-88.327722,36.614634],[-88.327838,36.613825],[-88.327453,36.613801],[-88.327453,36.613138],[-88.328031,36.613069],[-88.327925,36.612699],[-88.326932,36.612699],[-88.326873,36.613225],[-88.326288,36.613144],[-88.32597,36.613893],[-88.325323,36.614107],[-88.325308,36.614233],[-88.325292,36.614321],[-88.324893,36.614329],[-88.324731,36.614433],[-88.324532,36.614428],[-88.324586,36.614677]]]}},
{"type":"Feature","properties":{"osmId":"way/783306694","kind":"parking"},"geometry":{"type":"Polygon","coordinates":[[[-88.31662,36.625076],[-88.316595,36.624748],[-88.316431,36.624756],[-88.315629,36.625469],[-88.315629,36.625561],[-88.316075,36.625531],[-88.31662,36.625076]]]}},
{"type":"Feature","properties":{"osmId":"way/783306695","kind":"parking"},"geometry":{"type":"Polygon","coordinates":[[[-88.316605,36.624672],[-88.31659,36.624342],[-88.315525,36.624374],[-88.315538,36.62466],[-88.315622,36.624657],[-88.315624,36.6247],[-88.316605,36.624672]]]}},
{"type":"Feature","properties":{"osmId":"way/783306696","kind":"parking"},"geometry":{"type":"Polygon","coordinates":[[[-88.315471,36.625558],[-88.315521,36.625292],[-88.315496,36.624905],[-88.315564,36.624905],[-88.315549,36.624768],[-88.315171,36.62479],[-88.31518,36.62483],[-88.3151,36.624833],[-88.315153,36.625275],[-88.315115,36.625531],[-88.315471,36.625558]]]}}
]}
