{"type":"FeatureCollection","features":[
{"type":"Feature","properties":{"osmId":"way/1465196785","kind":"footway","steps":false,"source":"osm","access":"main"},"geometry":{"type":"LineString","coordinates":[[-88.31525,36.616921],[-88.315256,36.616917],[-88.315275,36.616931],[-88.315297,36.616937],[-88.31532,36.61694],[-88.315354,36.61694],[-88.315499,36.616934],[-88.315628,36.61693],[-88.315686,36.616928],[-88.315753,36.616926],[-88.315816,36.616926],[-88.315861,36.616925],[-88.316011,36.616919],[-88.316068,36.616917],[-88.316138,36.616916],[-88.316188,36.616915],[-88.316261,36.616915],[-88.316308,36.616915],[-88.316415,36.616917],[-88.316482,36.616918],[-88.316515,36.616919],[-88.316562,36.61692],[-88.316717,36.616923],[-88.316846,36.616924],[-88.31703,36.616918],[-88.317088,36.616916],[-88.317199,36.616914],[-88.317701,36.616906],[-88.318542,36.61688]]}},
{"type":"Feature","properties":{"osmId":"way/1465196786","kind":"crossing","steps":false,"source":"osm","access":"main"},"geometry":{"type":"LineString","coordinates":[[-88.318542,36.61688],[-88.318693,36.616873],[-88.318789,36.61687]]}},
{"type":"Feature","properties":{"osmId":"way/1465196787","kind":"footway","steps":false,"source":"osm","access":"main"},"geometry":{"type":"LineString","coordinates":[[-88.318789,36.61687],[-88.319593,36.616843],[-88.31968,36.616841],[-88.319722,36.616828],[-88.319728,36.616835]]}},
{"type":"Feature","properties":{"osmId":"way/1465196788","kind":"crossing","steps":false,"source":"osm","access":"main"},"geometry":{"type":"LineString","coordinates":[[-88.320779,36.616785],[-88.32086,36.616761],[-88.320955,36.616734]]}},
{"type":"Feature","properties":{"osmId":"way/1465196789","kind":"footway","steps":false,"source":"osm","access":"main"},"geometry":{"type":"LineString","coordinates":[[-88.320955,36.616734],[-88.321018,36.616718],[-88.321276,36.616626],[-88.321448,36.616569],[-88.321566,36.616548],[-88.321712,36.616531],[-88.321832,36.616525],[-88.321986,36.616533],[-88.322129,36.61655],[-88.322319,36.616592],[-88.322568,36.616653],[-88.32268,36.616671],[-88.322795,36.616684],[-88.322855,36.616687],[-88.322931,36.616691],[-88.323291,36.616701],[-88.323414,36.616693],[-88.323713,36.616682],[-88.324148,36.616657],[-88.324256,36.616605],[-88.324255,36.615502],[-88.32426,36.614814],[-88.324265,36.614577],[-88.324284,36.614413],[-88.324283,36.614277],[-88.324281,36.613868],[-88.324278,36.613425],[-88.324307,36.613389]]}},
{"type":"Feature","properties":{"osmId":"way/1465196790","kind":"crossing","steps":false,"source":"osm","access":"main"},"geometry":{"type":"LineString","coordinates":[[-88.31525,36.616921],[-88.315251,36.617039],[-88.315254,36.617137]]}},
{"type":"Feature","properties":{"osmId":"way/1465196791","kind":"crossing","steps":false,"source":"osm","access":"main"},"geometry":{"type":"LineString","coordinates":[[-88.31525,36.616921],[-88.315087,36.616939],[-88.314944,36.616953]]}},
{"type":"Feature","properties":{"osmId":"way/1487013128","kind":"footway","steps":false,"source":"osm","access":"main"},"geometry":{"type":"LineString","coordinates":[[-88.319228,36.616976],[-88.318904,36.616988],[-88.318337,36.617005],[-88.317632,36.617028]]}},
{"type":"Feature","properties":{"osmId":"way/1487013129","kind":"footway","steps":false,"source":"osm","access":"main"},"geometry":{"type":"LineString","coordinates":[[-88.316151,36.617085],[-88.315938,36.617092],[-88.315379,36.617111],[-88.315346,36.617113],[-88.315315,36.617118],[-88.315287,36.617129],[-88.315261,36.617144],[-88.315254,36.617137]]}},
{"type":"Feature","properties":{"osmId":"way/1487013130","kind":"crossing","steps":false,"source":"osm","access":"main"},"geometry":{"type":"LineString","coordinates":[[-88.316273,36.61708],[-88.316212,36.617083],[-88.316151,36.617085]]}},
{"type":"Feature","properties":{"osmId":"way/1487013131","kind":"footway","steps":false,"source":"osm","access":"main"},"geometry":{"type":"LineString","coordinates":[[-88.317532,36.617032],[-88.317318,36.617034],[-88.317234,36.617035],[-88.316664,36.617058],[-88.316273,36.61708]]}},
{"type":"Feature","properties":{"osmId":"way/1487013132","kind":"crossing","steps":false,"source":"osm","access":"main"},"geometry":{"type":"LineString","coordinates":[[-88.317632,36.617028],[-88.317581,36.61703],[-88.317532,36.617032]]}},
{"type":"Feature","properties":{"osmId":"way/1487013133","kind":"crossing","steps":false,"source":"osm","access":"main"},"geometry":{"type":"LineString","coordinates":[[-88.319228,36.616976],[-88.319352,36.616959],[-88.319426,36.616949]]}},
{"type":"Feature","properties":{"osmId":"way/1487013134","kind":"footway","steps":false,"source":"osm","access":"main"},"geometry":{"type":"LineString","coordinates":[[-88.319594,36.616852],[-88.319593,36.616843]]}},
{"type":"Feature","properties":{"osmId":"way/1487013135","kind":"crossing","steps":false,"source":"osm","access":"main"},"geometry":{"type":"LineString","coordinates":[[-88.319598,36.616932],[-88.319596,36.616892],[-88.319594,36.616852]]}},
{"type":"Feature","properties":{"osmId":"way/1487013136","kind":"footway","steps":false,"source":"osm","access":"main"},"geometry":{"type":"LineString","coordinates":[[-88.319426,36.616949],[-88.319435,36.616957],[-88.319461,36.616949],[-88.319493,36.616945],[-88.319543,36.616942],[-88.319598,36.61694],[-88.320276,36.616917],[-88.320622,36.616905],[-88.320796,36.616902],[-88.320851,36.616897],[-88.320906,36.616887],[-88.320953,36.616874],[-88.321032,36.616847],[-88.321093,36.616821],[-88.321242,36.616744],[-88.32133,36.616709],[-88.321464,36.616667],[-88.32159,36.616641],[-88.3217,36.616628],[-88.321835,36.616622],[-88.321895,36.616623],[-88.321986,36.616628],[-88.322092,36.616642],[-88.322166,36.616656],[-88.32229,36.61669],[-88.322352,36.616711],[-88.322415,36.616735],[-88.322515,36.616775],[-88.322582,36.6168],[-88.322664,36.616821],[-88.322732,36.616832],[-88.322839,36.61684],[-88.322846,36.616846],[-88.322849,36.616855],[-88.32286,36.616855]]}},
{"type":"Feature","properties":{"osmId":"way/1487013137","kind":"footway","steps":false,"source":"osm","access":"main"},"geometry":{"type":"LineString","coordinates":[[-88.319598,36.61694],[-88.319598,36.616932]]}},
{"type":"Feature","properties":{"osmId":"way/1487013138","kind":"footway","steps":false,"source":"osm","access":"main"},"geometry":{"type":"LineString","coordinates":[[-88.319908,36.616834],[-88.31993,36.616833],[-88.320535,36.616813],[-88.320634,36.616805],[-88.320706,36.616797],[-88.320779,36.616785]]}},
{"type":"Feature","properties":{"osmId":"way/1487013139","kind":"crossing","steps":false,"source":"osm","access":"main"},"geometry":{"type":"LineString","coordinates":[[-88.319728,36.616835],[-88.319812,36.616834],[-88.319908,36.616834]]}},
{"type":"Feature","properties":{"osmId":"way/1487013140","kind":"crossing","steps":false,"source":"osm","access":"main"},"geometry":{"type":"LineString","coordinates":[[-88.315254,36.617137],[-88.315081,36.617161],[-88.31491,36.617184]]}},
{"type":"Feature","properties":{"osmId":"way/1487013141","kind":"crossing","steps":false,"source":"osm","access":"main"},"geometry":{"type":"LineString","coordinates":[[-88.31491,36.617184],[-88.314929,36.617049],[-88.314944,36.616953]]}},
{"type":"Feature","properties":{"osmId":"way/1487013142","kind":"crossing","steps":false,"source":"osm","access":"main"},"geometry":{"type":"LineString","coordinates":[[-88.32284,36.61683],[-88.32285,36.616737],[-88.322854,36.616696]]}},
{"type":"Feature","properties":{"osmId":"way/1487013143","kind":"footway","steps":false,"source":"osm","access":"main"},"geometry":{"type":"LineString","coordinates":[[-88.322854,36.616696],[-88.322855,36.616687]]}},
{"type":"Feature","properties":{"osmId":"way/1487013144","kind":"crossing","steps":false,"source":"osm","access":"main"},"geometry":{"type":"LineString","coordinates":[[-88.32286,36.616855],[-88.32292,36.616853],[-88.322981,36.61685]]}},
{"type":"Feature","properties":{"osmId":"way/1487013145","kind":"footway","steps":false,"source":"osm","access":"main"},"geometry":{"type":"LineString","coordinates":[[-88.322839,36.61684],[-88.32284,36.61683]]}},
{"type":"Feature","properties":{"osmId":"way/269352619","kind":"footway","steps":false,"source":"osm","access":"main"},"geometry":{"type":"LineString","coordinates":[[-88.321824,36.612506],[-88.321881,36.612592],[-88.321884,36.612757],[-88.321889,36.613075],[-88.321964,36.613213],[-88.321964,36.613244],[-88.321972,36.613892],[-88.321949,36.613948],[-88.321862,36.61397],[-88.321861,36.614846],[-88.32186,36.615732],[-88.321843,36.615865],[-88.321814,36.61603],[-88.321762,36.616155],[-88.321679,36.616287],[-88.32163,36.616393],[-88.321624,36.616437]]}},
{"type":"Feature","properties":{"osmId":"way/269352648","kind":"footway","steps":false,"source":"osm","access":"main"},"geometry":{"type":"LineString","coordinates":[[-88.321862,36.61397],[-88.321645,36.613939]]}},
{"type":"Feature","properties":{"osmId":"way/269352666","kind":"footway","steps":false,"source":"osm","access":"main"},"geometry":{"type":"LineString","coordinates":[[-88.321861,36.614846],[-88.320901,36.614857],[-88.320678,36.615029]]}},
{"type":"Feature","properties":{"osmId":"way/269352684","kind":"footway","steps":false,"source":"osm","access":"main"},"geometry":{"type":"LineString","coordinates":[[-88.321449,36.619051],[-88.321377,36.618852],[-88.321381,36.617716],[-88.321389,36.617659],[-88.321422,36.617625],[-88.321427,36.617448],[-88.321525,36.61739]]}},
{"type":"Feature","properties":{"osmId":"way/386423126","kind":"footway","steps":false,"source":"osm","access":"main"},"geometry":{"type":"LineString","coordinates":[[-88.324865,36.61328],[-88.324775,36.613211],[-88.324716,36.613122],[-88.324694,36.613024],[-88.324708,36.612937],[-88.32475,36.612856],[-88.324818,36.612788],[-88.324907,36.612737],[-88.325018,36.612707],[-88.325135,36.612704],[-88.325248,36.612728],[-88.325348,36.612779],[-88.325424,36.61285],[-88.325471,36.612936],[-88.325481,36.612975],[-88.325484,36.613013],[-88.325483,36.613024],[-88.325479,36.613069],[-88.325463,36.613123],[-88.325407,36.613207],[-88.325323,36.613274],[-88.325218,36.613319],[-88.325101,36.613336],[-88.324977,36.613323],[-88.324865,36.61328]]}},
{"type":"Feature","properties":{"osmId":"way/544475032","kind":"footway","steps":false,"source":"osm","access":"main"},"geometry":{"type":"LineString","coordinates":[[-88.324694,36.613024],[-88.325483,36.613024]]}},
{"type":"Feature","properties":{"osmId":"way/544476979","kind":"footway","steps":false,"source":"osm","access":"main"},"geometry":{"type":"LineString","coordinates":[[-88.325703,36.613319],[-88.325703,36.613122],[-88.325703,36.613023],[-88.325704,36.612935],[-88.325702,36.612734]]}},
{"type":"Feature","properties":{"osmId":"way/544476982","kind":"footway","steps":false,"source":"osm","access":"main"},"geometry":{"type":"LineString","coordinates":[[-88.325805,36.612937],[-88.325704,36.612935],[-88.325471,36.612936]]}},
{"type":"Feature","properties":{"osmId":"way/544477151","kind":"footway","steps":false,"source":"osm","access":"main"},"geometry":{"type":"LineString","coordinates":[[-88.325773,36.613026],[-88.325703,36.613023],[-88.325502,36.613024],[-88.325483,36.613024]]}},
{"type":"Feature","properties":{"osmId":"way/544477842","kind":"footway","steps":false,"source":"osm","access":"main"},"geometry":{"type":"LineString","coordinates":[[-88.324694,36.613024],[-88.324591,36.613022],[-88.324475,36.613025]]}},
{"type":"Feature","properties":{"osmId":"way/544477844","kind":"footway","steps":false,"source":"osm","access":"main"},"geometry":{"type":"LineString","coordinates":[[-88.324907,36.612737],[-88.32453,36.612715]]}},
{"type":"Feature","properties":{"osmId":"way/544478068","kind":"footway","steps":false,"source":"osm","access":"main"},"geometry":{"type":"LineString","coordinates":[[-88.324476,36.613858],[-88.324476,36.613334],[-88.324476,36.613295],[-88.324475,36.613025],[-88.324475,36.61297],[-88.324475,36.612714],[-88.324481,36.612714]]}},
{"type":"Feature","properties":{"osmId":"way/544479389","kind":"footway","steps":false,"source":"osm","access":"main"},"geometry":{"type":"LineString","coordinates":[[-88.3245,36.613279],[-88.324544,36.613253],[-88.324581,36.613217],[-88.324591,36.613188],[-88.324591,36.613022],[-88.324592,36.612799],[-88.324579,36.612768],[-88.324542,36.61272],[-88.32453,36.612715],[-88.324504,36.612712],[-88.324481,36.612714]]}},
{"type":"Feature","properties":{"osmId":"way/544479390","kind":"footway","steps":false,"source":"osm","access":"main"},"geometry":{"type":"LineString","coordinates":[[-88.3245,36.613279],[-88.324476,36.613295]]}},
{"type":"Feature","properties":{"osmId":"way/544479391","kind":"footway","steps":false,"source":"osm","access":"main"},"geometry":{"type":"LineString","coordinates":[[-88.325101,36.613336],[-88.324476,36.613334]]}},
{"type":"Feature","properties":{"osmId":"way/544479526","kind":"footway","steps":false,"source":"osm","access":"main"},"geometry":{"type":"LineString","coordinates":[[-88.324476,36.613858],[-88.324476,36.61387]]}},
{"type":"Feature","properties":{"osmId":"way/544479527","kind":"crossing","steps":false,"source":"osm","access":"main"},"geometry":{"type":"LineString","coordinates":[[-88.324476,36.61387],[-88.3244,36.613869],[-88.324361,36.613868]]}},
{"type":"Feature","properties":{"osmId":"way/544479528","kind":"footway","steps":false,"source":"osm","access":"main"},"geometry":{"type":"LineString","coordinates":[[-88.324361,36.613868],[-88.324281,36.613868],[-88.32413,36.613869],[-88.323801,36.613869],[-88.323182,36.61387],[-88.323145,36.61387]]}},
{"type":"Feature","properties":{"osmId":"way/544480698","kind":"footway","steps":false,"source":"osm","access":"main"},"geometry":{"type":"LineString","coordinates":[[-88.324071,36.612762],[-88.323944,36.612762],[-88.323357,36.612761],[-88.322699,36.612759],[-88.322416,36.612759],[-88.321903,36.612757],[-88.321884,36.612757]]}},
{"type":"Feature","properties":{"osmId":"way/544480699","kind":"crossing","steps":false,"source":"osm","access":"main"},"geometry":{"type":"LineString","coordinates":[[-88.324475,36.61297],[-88.324392,36.61297],[-88.324368,36.61297]]}},
{"type":"Feature","properties":{"osmId":"way/544480700","kind":"footway","steps":false,"source":"osm","access":"main"},"geometry":{"type":"LineString","coordinates":[[-88.324368,36.61297],[-88.324305,36.612968],[-88.323949,36.612974],[-88.323944,36.612762],[-88.323922,36.612049],[-88.323918,36.611931]]}},
{"type":"Feature","properties":{"osmId":"way/544480701","kind":"footway","steps":false,"source":"osm","access":"main"},"geometry":{"type":"LineString","coordinates":[[-88.324305,36.613074],[-88.324305,36.612968],[-88.324305,36.612782],[-88.324128,36.61278],[-88.324102,36.612777],[-88.324071,36.612762]]}},
{"type":"Feature","properties":{"osmId":"way/544480750","kind":"footway","steps":false,"source":"osm","access":"main"},"geometry":{"type":"LineString","coordinates":[[-88.324305,36.613074],[-88.323956,36.613072],[-88.323952,36.613005],[-88.323949,36.612974]]}},
{"type":"Feature","properties":{"osmId":"way/544481996","kind":"footway","steps":false,"source":"osm","access":"main"},"geometry":{"type":"LineString","coordinates":[[-88.322699,36.612759],[-88.3227,36.612504],[-88.3227,36.612456],[-88.322701,36.61228],[-88.322702,36.61205],[-88.322702,36.611991],[-88.322702,36.611836],[-88.322702,36.611751],[-88.322703,36.611704],[-88.322703,36.611406]]}},
{"type":"Feature","properties":{"osmId":"way/544481997","kind":"footway","steps":false,"source":"osm","access":"main"},"geometry":{"type":"LineString","coordinates":[[-88.322701,36.61228],[-88.322416,36.612451],[-88.322353,36.612488],[-88.321931,36.612741],[-88.321903,36.612757]]}},
{"type":"Feature","properties":{"osmId":"way/544481998","kind":"footway","steps":false,"source":"osm","access":"main"},"geometry":{"type":"LineString","coordinates":[[-88.322416,36.612759],[-88.322416,36.612537],[-88.322416,36.612451],[-88.322416,36.612283],[-88.322416,36.61225]]}},
{"type":"Feature","properties":{"osmId":"way/544481999","kind":"footway","steps":false,"source":"osm","access":"main"},"geometry":{"type":"LineString","coordinates":[[-88.322701,36.61228],[-88.322416,36.612283]]}},
{"type":"Feature","properties":{"osmId":"way/544482000","kind":"footway","steps":false,"source":"osm","access":"main"},"geometry":{"type":"LineString","coordinates":[[-88.3227,36.612456],[-88.322536,36.612631],[-88.322416,36.612759]]}},
{"type":"Feature","properties":{"osmId":"way/544482001","kind":"footway","steps":false,"source":"osm","access":"main"},"geometry":{"type":"LineString","coordinates":[[-88.322699,36.612759],[-88.322536,36.612631],[-88.322416,36.612537],[-88.322353,36.612488],[-88.321929,36.612156]]}},
{"type":"Feature","properties":{"osmId":"way/544482002","kind":"footway","steps":false,"source":"osm","access":"main"},"geometry":{"type":"LineString","coordinates":[[-88.321918,36.610253],[-88.32192,36.610439],[-88.32192,36.610476]]}},
{"type":"Feature","properties":{"osmId":"way/544482003","kind":"crossing","steps":false,"source":"osm","access":"main"},"geometry":{"type":"LineString","coordinates":[[-88.32192,36.610476],[-88.321921,36.610531],[-88.321922,36.610609]]}},
{"type":"Feature","properties":{"osmId":"way/544482004","kind":"footway","steps":false,"source":"osm","access":"main"},"geometry":{"type":"LineString","coordinates":[[-88.321922,36.610609],[-88.321923,36.61069]]}},
{"type":"Feature","properties":{"osmId":"way/544482005","kind":"crossing","steps":false,"source":"osm","access":"main"},"geometry":{"type":"LineString","coordinates":[[-88.321923,36.61069],[-88.321924,36.610728],[-88.321924,36.6108]]}},
{"type":"Feature","properties":{"osmId":"way/544482006","kind":"footway","steps":false,"source":"osm","access":"main"},"geometry":{"type":"LineString","coordinates":[[-88.321924,36.6108],[-88.321926,36.611266],[-88.321928,36.611743],[-88.321929,36.612156],[-88.321931,36.612741]]}},
{"type":"Feature","properties":{"osmId":"way/544482007","kind":"footway","steps":false,"source":"osm","access":"main"},"geometry":{"type":"LineString","coordinates":[[-88.323019,36.61126],[-88.322866,36.611261],[-88.322533,36.611263],[-88.322381,36.611264],[-88.322256,36.611264],[-88.321926,36.611266]]}},
{"type":"Feature","properties":{"osmId":"way/544482008","kind":"footway","steps":false,"source":"osm","access":"main"},"geometry":{"type":"LineString","coordinates":[[-88.322703,36.611406],[-88.322771,36.611331],[-88.322805,36.611305],[-88.322866,36.611261]]}},
{"type":"Feature","properties":{"osmId":"way/544482009","kind":"footway","steps":false,"source":"osm","access":"main"},"geometry":{"type":"LineString","coordinates":[[-88.322703,36.611406],[-88.322638,36.611339],[-88.322594,36.611305],[-88.322533,36.611263]]}},
{"type":"Feature","properties":{"osmId":"way/544482010","kind":"footway","steps":false,"source":"osm","access":"main"},"geometry":{"type":"LineString","coordinates":[[-88.323019,36.61126],[-88.323035,36.611677]]}},
{"type":"Feature","properties":{"osmId":"way/544482011","kind":"footway","steps":false,"source":"osm","access":"main"},"geometry":{"type":"LineString","coordinates":[[-88.323035,36.611677],[-88.322868,36.611698],[-88.322797,36.61174],[-88.32275,36.611783],[-88.32273,36.611805],[-88.322715,36.611823],[-88.322702,36.611836]]}},
{"type":"Feature","properties":{"osmId":"way/544482012","kind":"footway","steps":false,"source":"osm","access":"main"},"geometry":{"type":"LineString","coordinates":[[-88.323035,36.611677],[-88.323103,36.611687],[-88.323194,36.611712],[-88.323244,36.611747],[-88.323287,36.61178],[-88.323299,36.611797]]}},
{"type":"Feature","properties":{"osmId":"way/544482013","kind":"footway","steps":false,"source":"osm","access":"main"},"geometry":{"type":"LineString","coordinates":[[-88.322701,36.61228],[-88.32299,36.612047],[-88.323299,36.611797]]}},
{"type":"Feature","properties":{"osmId":"way/544482014","kind":"footway","steps":false,"source":"osm","access":"main"},"geometry":{"type":"LineString","coordinates":[[-88.323922,36.612049],[-88.323342,36.612048],[-88.32299,36.612047]]}},
{"type":"Feature","properties":{"osmId":"way/544482015","kind":"footway","steps":false,"source":"osm","access":"main"},"geometry":{"type":"LineString","coordinates":[[-88.323357,36.612761],[-88.323353,36.61257],[-88.323342,36.612048]]}},
{"type":"Feature","properties":{"osmId":"way/544484214","kind":"footway","steps":false,"source":"osm","access":"main"},"geometry":{"type":"LineString","coordinates":[[-88.323342,36.612048],[-88.323331,36.611806],[-88.323331,36.611795],[-88.323299,36.611797]]}},
{"type":"Feature","properties":{"osmId":"way/544484216","kind":"footway","steps":false,"source":"osm","access":"main"},"geometry":{"type":"LineString","coordinates":[[-88.323353,36.61257],[-88.323267,36.612643],[-88.323223,36.61267],[-88.323171,36.61269],[-88.323119,36.612704],[-88.323057,36.612714],[-88.322976,36.61271],[-88.322898,36.612684],[-88.322851,36.612655],[-88.322801,36.612616],[-88.322762,36.612582],[-88.3227,36.612504]]}},
{"type":"Feature","properties":{"osmId":"way/544484218","kind":"footway","steps":false,"source":"osm","access":"main"},"geometry":{"type":"LineString","coordinates":[[-88.322416,36.61225],[-88.322433,36.612238],[-88.322702,36.61205]]}},
{"type":"Feature","properties":{"osmId":"way/544484219","kind":"footway","steps":false,"source":"osm","access":"main"},"geometry":{"type":"LineString","coordinates":[[-88.323918,36.611931],[-88.323935,36.611856],[-88.323945,36.611795],[-88.323924,36.611709],[-88.323912,36.61167],[-88.32391,36.611606],[-88.323916,36.610885]]}},
{"type":"Feature","properties":{"osmId":"way/544484221","kind":"footway","steps":false,"source":"osm","access":"main"},"geometry":{"type":"LineString","coordinates":[[-88.323916,36.610885],[-88.323024,36.610882],[-88.322258,36.61088]]}},
{"type":"Feature","properties":{"osmId":"way/544484223","kind":"footway","steps":false,"source":"osm","access":"main"},"geometry":{"type":"LineString","coordinates":[[-88.322258,36.61088],[-88.322256,36.611264]]}},
{"type":"Feature","properties":{"osmId":"way/544484224","kind":"footway","steps":false,"source":"osm","access":"main"},"geometry":{"type":"LineString","coordinates":[[-88.323019,36.61126],[-88.323024,36.610882]]}},
{"type":"Feature","properties":{"osmId":"way/544484226","kind":"crossing","steps":false,"source":"osm","access":"main"},"geometry":{"type":"LineString","coordinates":[[-88.322255,36.610793],[-88.322255,36.61073],[-88.322255,36.610681]]}},
{"type":"Feature","properties":{"osmId":"way/544484228","kind":"crossing","steps":false,"source":"osm","access":"main"},"geometry":{"type":"LineString","coordinates":[[-88.322255,36.61059],[-88.322254,36.61053],[-88.322253,36.610481]]}},
{"type":"Feature","properties":{"osmId":"way/544484230","kind":"footway","steps":false,"source":"osm","access":"main"},"geometry":{"type":"LineString","coordinates":[[-88.322258,36.61088],[-88.322255,36.610793]]}},
{"type":"Feature","properties":{"osmId":"way/544484231","kind":"footway","steps":false,"source":"osm","access":"main"},"geometry":{"type":"LineString","coordinates":[[-88.322255,36.610681],[-88.322255,36.61059]]}},
{"type":"Feature","properties":{"osmId":"way/544484232","kind":"footway","steps":false,"source":"osm","access":"main"},"geometry":{"type":"LineString","coordinates":[[-88.322253,36.610481],[-88.322252,36.610432],[-88.322249,36.610049]]}},
{"type":"Feature","properties":{"osmId":"way/544484233","kind":"footway","steps":false,"source":"osm","access":"main"},"geometry":{"type":"LineString","coordinates":[[-88.322252,36.610432],[-88.32192,36.610439]]}},
{"type":"Feature","properties":{"osmId":"way/544484519","kind":"footway","steps":false,"source":"osm","access":"main"},"geometry":{"type":"LineString","coordinates":[[-88.322416,36.612759],[-88.322407,36.613169],[-88.322414,36.613246],[-88.322289,36.613248],[-88.322264,36.613254],[-88.322033,36.613254],[-88.321964,36.613244]]}},
{"type":"Feature","properties":{"osmId":"way/544484520","kind":"footway","steps":false,"source":"osm","access":"main"},"geometry":{"type":"LineString","coordinates":[[-88.324305,36.612782],[-88.324272,36.610799]]}},
{"type":"Feature","properties":{"osmId":"way/544484521","kind":"crossing","steps":false,"source":"osm","access":"main"},"geometry":{"type":"LineString","coordinates":[[-88.324272,36.610799],[-88.32427,36.610756],[-88.324266,36.610678]]}},
{"type":"Feature","properties":{"osmId":"way/544484522","kind":"footway","steps":false,"source":"osm","access":"main"},"geometry":{"type":"LineString","coordinates":[[-88.324266,36.610678],[-88.324264,36.610576]]}},
{"type":"Feature","properties":{"osmId":"way/544484523","kind":"crossing","steps":false,"source":"osm","access":"main"},"geometry":{"type":"LineString","coordinates":[[-88.324264,36.610576],[-88.324263,36.610532],[-88.324262,36.610395],[-88.324262,36.610304]]}},
{"type":"Feature","properties":{"osmId":"way/544484913","kind":"footway","steps":false,"source":"osm","access":"main"},"geometry":{"type":"LineString","coordinates":[[-88.322702,36.611751],[-88.322661,36.611751],[-88.322481,36.611749],[-88.321928,36.611743]]}},
{"type":"Feature","properties":{"osmId":"way/544484914","kind":"footway","steps":false,"source":"osm","access":"main"},"geometry":{"type":"LineString","coordinates":[[-88.322381,36.611264],[-88.322415,36.611293],[-88.32243,36.611319],[-88.322436,36.611353],[-88.322481,36.611749],[-88.322502,36.611932],[-88.322508,36.611988],[-88.322508,36.611999],[-88.322508,36.612035],[-88.322491,36.612067],[-88.322454,36.612096],[-88.322425,36.612112],[-88.322433,36.612238]]}},
{"type":"Feature","properties":{"osmId":"way/544484915","kind":"footway","steps":false,"source":"osm","access":"main"},"geometry":{"type":"LineString","coordinates":[[-88.322703,36.611704],[-88.322661,36.611751],[-88.322502,36.611932]]}},
{"type":"Feature","properties":{"osmId":"way/544484916","kind":"footway","steps":false,"source":"osm","access":"main"},"geometry":{"type":"LineString","coordinates":[[-88.322702,36.611991],[-88.322508,36.611999]]}},
{"type":"Feature","properties":{"osmId":"way/585348066","kind":"footway","steps":false,"bridge":true,"source":"osm","access":"main"},"geometry":{"type":"LineString","coordinates":[[-88.321624,36.616437],[-88.321643,36.616767]]}},
{"type":"Feature","properties":{"osmId":"way/585348067","kind":"footway","steps":false,"source":"osm","access":"main"},"geometry":{"type":"LineString","coordinates":[[-88.321643,36.616767],[-88.321671,36.617113],[-88.321527,36.617255],[-88.321525,36.61739],[-88.321524,36.617712],[-88.321521,36.618191],[-88.321483,36.61822],[-88.321486,36.618334],[-88.321518,36.618358],[-88.321513,36.61886],[-88.321449,36.619051]]}},
{"type":"Feature","properties":{"osmId":"way/585349168","kind":"footway","steps":false,"source":"osm","access":"main"},"geometry":{"type":"LineString","coordinates":[[-88.325463,36.613123],[-88.325703,36.613122],[-88.325822,36.613124]]}},
{"type":"Feature","properties":{"way":"override/7","kind":"footway","name":"Industry and Technology east terrace, north-south","surface":"paved","steps":false,"source":"override","access":"main"},"geometry":{"type":"LineString","coordinates":[[-88.322116,36.615858],[-88.322116,36.615493]]}},
{"type":"Feature","properties":{"way":"override/6","kind":"footway","name":"Industry and Technology east terrace walk","surface":"paved","steps":false,"source":"override","access":"main"},"geometry":{"type":"LineString","coordinates":[[-88.322241,36.615493],[-88.322116,36.615493],[-88.32186,36.615493]]}},
{"type":"Feature","properties":{"way":"override/3","kind":"footway","name":"North 16th Street west sidewalk","surface":"paved","steps":false,"source":"override","access":"main"},"geometry":{"type":"LineString","coordinates":[[-88.324473,36.612719],[-88.324452,36.612293],[-88.324452,36.611713],[-88.324435,36.611212]]}},
{"type":"Feature","properties":{"way":"override/5","kind":"footway","name":"Engineering and Physics south walk","surface":"paved","steps":false,"source":"override","access":"main"},"geometry":{"type":"LineString","coordinates":[[-88.3249,36.611713],[-88.324452,36.611713]]}},
{"type":"Feature","properties":{"way":"override/4","kind":"footway","name":"Engineering and Physics north walk","surface":"paved","steps":false,"source":"override","access":"main"},"geometry":{"type":"LineString","coordinates":[[-88.325128,36.612447],[-88.32446,36.612447]]}}
]}
